X,Y,OBJECTID,GMID,Dataset,Facility_Name,Address,數據集,設施名稱,地址,District,地區,Library_Type,圖書館種類,Opening_Hours,開放時間,Telephone,聯絡電話,Fax_Number,傳真號碼,Email_Address,電郵地址,Website,網頁,Latitude,Longitude,Building_CSUID,Northing,Easting
114.11152,22.5014,1,Ws4pkZ2Bgl,Libraries,Kam Tsin Village(Mobile Library 12),"Carpark of Kam Tsin Village Ho Tung School, Sheung Shui",圖書館,金錢村(流動圖書館十二),上水金錢村何東學校停車場,NORTH,北區,MOBILE LIBRARY,流動圖書館,N.A.,N.A.,N.A.,N.A.,N.A.,N.A.,N.A.,N.A.,https://www.hkpl.gov.hk/en/locations/north/mobile12/kam-tsin-village.html,https://www.hkpl.gov.hk/tc/locations/north/mobile12/kam-tsin-village.html,22.5014,114.11152,,840199,829543
114.1705,22.29438,2,Li5kAJgDVx,Libraries,Self-service Library Station (Hong Kong Cultural Centre),"Hong Kong Cultural Centre, 10 Salisbury Road, Tsim Sha Tsui",圖書館,自助圖書站(香港文化中心),尖沙咀梳士巴利道10號香港文化中心,YAU TSIM MONG,油尖旺,SELF-SERVICE LIBRARY STATION,自助圖書站,N.A.,N.A.,N.A.,N.A.,N.A.,N.A.,N.A.,N.A.,https://www.hkpl.gov.hk/en/locations/library-station/kowloon/hong-kong-cultural-centre.html,https://www.hkpl.gov.hk/tc/locations/library-station/kowloon/hong-kong-cultural-centre.html,22.29438,114.1705,,817274,835611
113.977000000000103,22.24316,3,YzOrnDvEbH,Libraries,Pui O(Mobile Library 4),"Adjacent to Pui O Public Car Park at the Junction of South Lantau Road and Chi Ma Wan Road, Lantau Island",圖書館,貝澳(流動圖書館四),大嶼山嶼南道與芝麻灣道交界貝澳公共停車場側,ISLANDS,離島,MOBILE LIBRARY,流動圖書館,N.A.,N.A.,N.A.,N.A.,N.A.,N.A.,N.A.,N.A.,http://www.hkpl.gov.hk/en/locations/islands/mobile4/public-car-park-at-the.html,http://www.hkpl.gov.hk/tc/locations/islands/mobile4/public-car-park-at-the.html,22.24316,113.977,,811615,815664
114.016170000000102,22.29574,4,1P8nfHHF7t,Libraries,Discovery Bay(Mobile Library 4),"Adjacent to Discovery Bay Post Office at Discovery Bay Plaza, Discovery Bay",圖書館,愉景灣(流動圖書館四),愉景灣愉景廣場愉景灣郵政局側,ISLANDS,離島,MOBILE LIBRARY,流動圖書館,N.A.,N.A.,N.A.,N.A.,N.A.,N.A.,N.A.,N.A.,http://www.hkpl.gov.hk/en/locations/islands/mobile4/adjacent-to-water-feature-at.html,http://www.hkpl.gov.hk/tc/locations/islands/mobile4/adjacent-to-water-feature-at.html,22.29574,114.01617,,817433,819708
114.18596,22.33828,5,zGkudWneOd,Libraries,Lok Fu Public Library,"Shop No. 112 3/F.,Lok Fu Plaza ,Junction Road Kowloon",圖書館,樂富公共圖書館,九龍聯合道樂富廣場三樓112號,WONG TAI SIN,黃大仙,STATIC LIBRARY,固定圖書館,N.A.,N.A.,N.A.,N.A.,N.A.,N.A.,N.A.,N.A.,http://www.hkpl.gov.hk/en/locations/wong-tai-sin/library/lok-fu.html,http://www.hkpl.gov.hk/tc/locations/wong-tai-sin/library/lok-fu.html,22.33828,114.18596,,822135,837204
114.23558,22.26429,6,YU0wGwNYSc,Libraries,Kut Shing Street(Mobile Library 9),"In front of Law Uk Folk Museum Rest Garden, Kut Shing Street, Chai Wan, Hong Kong",圖書館,吉勝街(流動圖書館九),香港柴灣吉勝街羅屋民俗館休憩花園前,EASTERN,東區,MOBILE LIBRARY,流動圖書館,N.A.,N.A.,N.A.,N.A.,N.A.,N.A.,N.A.,N.A.,https://www.hkpl.gov.hk/en/locations/eastern/mobile9/kut-shing-street.html,https://www.hkpl.gov.hk/tc/locations/eastern/mobile9/kut-shing-street.html,22.26429,114.23558,,813943,842319
114.2221,22.28491,7,xuatAXIOuH,Libraries,Self-service Library Station(Island East Sports Centre Sitting-out Area),"Island East Sports Centre Sitting-out Area, 52, Lei King Road, Sai Wan Ho",圖書館,自助圖書站(港島東體育館休憩處),西灣河鯉景道52號港島東體育館休憩處,EASTERN,東區,SELF-SERVICE LIBRARY STATION,自助圖書站,N.A.,N.A.,N.A.,N.A.,N.A.,N.A.,N.A.,N.A.,https://www.hkpl.gov.hk/en/locations/library-station/hong-kong-island/island-east-sports-centre.html,https://www.hkpl.gov.hk/tc/locations/library-station/hong-kong-island/island-east-sports-centre.html,22.28491,114.2221,,816226,840929
114.26353,22.30701,8,7mqt4IqpzA,Libraries,Yee Ming Estate(Mobile Library 5),"Adjacent to Yee Ching House, Yee Ming Estate, Tseung Kwan O, N.T.",圖書館,怡明邨(流動圖書館五),新界將軍澳怡明邨怡情樓側,SAI KUNG,西貢,MOBILE LIBRARY,流動圖書館,N.A.,N.A.,N.A.,N.A.,N.A.,N.A.,N.A.,N.A.,https://www.hkpl.gov.hk/en/locations/sai-kung/mobile5/yee-ming-estate.html,https://www.hkpl.gov.hk/tc/locations/sai-kung/mobile5/yee-ming-estate.html,22.30701,114.26353,,818675,845197
114.0239,22.44133,9,OFOKNtKRCl,Libraries,Yuen Long Public Library,"G-1/F, Yuen Long Leisure & Cultural Building, 52 Ma Tin Road, Yuen Long, N.T.",圖書館,元朗公共圖書館,新界元朗馬田路52號元朗文化康樂大樓地下及一樓,YUEN LONG,元朗,STATIC LIBRARY,固定圖書館,N.A.,N.A.,N.A.,N.A.,N.A.,N.A.,N.A.,N.A.,http://www.hkpl.gov.hk/en/locations/yuen-long/library/yuen-long.html,http://www.hkpl.gov.hk/tc/locations/yuen-long/library/yuen-long.html,22.44133,114.0239,2052133554T20160204,833554,820521
114.20482,22.37935,10,rHipDULeLN,Libraries,Yuen Chau Kok Public Library,"High Block of Yuen Chau Kok Complex, 35 Ngan Shing Street, Sha Tin",圖書館,圓洲角公共圖書館,沙田銀城街35號圓洲角綜合大樓高座,SHA TIN,沙田,STATIC LIBRARY,固定圖書館,N.A.,N.A.,N.A.,N.A.,N.A.,N.A.,N.A.,N.A.,https://www.hkpl.gov.hk/en/locations/sha-tin/library/yuen-chau-kok.html,https://www.hkpl.gov.hk/tc/locations/sha-tin/library/yuen-chau-kok.html,22.37935,114.20482,3914626683T20160630,826683,839146
113.99903,22.46268,11,ZeKT5gIBpn,Libraries,Tin Yuet Estate(Mobile Library 10),"Adjacent to Yuet Tai House, Tin Yuet Estate, Tin Shui Wai, N.T.",圖書館,天悅邨(流動圖書館十),天水圍天悅邨悅泰樓側,YUEN LONG,元朗,MOBILE LIBRARY,流動圖書館,N.A.,N.A.,N.A.,N.A.,N.A.,N.A.,N.A.,N.A.,http://www.hkpl.gov.hk/en/locations/yuen-long/mobile10/adjacent-to-yuet-tai-housetin.html,http://www.hkpl.gov.hk/tc/locations/yuen-long/mobile10/adjacent-to-yuet-tai-housetin.html,22.46268,113.99903,,835921,817964
114.110640000000103,22.2248,12,35gsWE8w1f,Libraries,The Provisional North Lamma Public Library Service Stop,"TGLA No. TIS 785, Yung Shue Wan Plaza Road, Lamma Island, N.T.",圖書館,臨時南丫島北段公共圖書館服務站,新界南丫島榕樹灣廣場路TGLA TIS 785 地段,ISLANDS,離島,STATIC LIBRARY,固定圖書館,N.A.,N.A.,N.A.,N.A.,N.A.,N.A.,N.A.,N.A.,http://www.hkpl.gov.hk/en/locations/islands/library/north-lamma.html,http://www.hkpl.gov.hk/tc/locations/islands/library/north-lamma.html,22.2248,114.11064,,809570,829439
114.27488,22.31662,13,OSW2C1Yvc4,Libraries,Sai Kung Mang Kung Uk Road(Mobile Library 5),"Basketball Field at Mang Kung Uk Road, Sai Kung (Outside the ESF Abacus International Kindergarten), N.T.",圖書館,西貢孟公屋路(流動圖書館五),新界西貢孟公屋路籃球場(英基雅柏國際幼稚園對出),SAI KUNG,西貢,MOBILE LIBRARY,流動圖書館,N.A.,N.A.,N.A.,N.A.,N.A.,N.A.,N.A.,N.A.,https://www.hkpl.gov.hk/en/locations/sai-kung/mobile5/mang-kung-uk.html,https://www.hkpl.gov.hk/tc/locations/sai-kung/mobile5/mang-kung-uk.html,22.31662,114.27488,,819739,846366
114.25602,22.43075,14,mO1zdLtzfV,Libraries,Nai Chung(Mobile Library 5),"Car Park adjacent to Nai Chung Bus Terminus, Sai Sha Road, Sai Kung North, N.T.",圖書館,泥涌(流動圖書館五),新界西貢北西沙路泥涌巴士站側停車場,TAI PO,大埔,MOBILE LIBRARY,流動圖書館,N.A.,N.A.,N.A.,N.A.,N.A.,N.A.,N.A.,N.A.,http://www.hkpl.gov.hk/en/locations/tai-po/mobile5/adjacent-to-nai-chung-bus-terminus.html,http://www.hkpl.gov.hk/tc/locations/tai-po/mobile5/adjacent-to-nai-chung-bus-terminus.html,22.43075,114.25602,,832377,844416
114.14407,22.48666,15,xhWXLEw0Ae,Libraries,Fanling South Public Library,"Shop Nos. G15 & G16, Dawning Views Shopping Plaza, 23 Yat Ming Road, Fanling, N.T.",圖書館,粉嶺南公共圖書館,"新界粉嶺一鳴路23號, 牽晴間購物廣場地下G15及G16號舖位",NORTH,北區,STATIC LIBRARY,固定圖書館,N.A.,N.A.,N.A.,N.A.,N.A.,N.A.,N.A.,N.A.,https://www.hkpl.gov.hk/en/locations/north/library/fanling-south.html,https://www.hkpl.gov.hk/tc/locations/north/library/fanling-south.html,22.48666,114.14407,,838566,832892
114.149900000000116,22.28658,16,8gQ4uvEs8W,Libraries,Sheung Wan Cultural Square(Mobile Library 9),"Lay-by near Sheung Wan Cultural Square (Bonham Strand close to the section of Wing Lok Street), Hong Kong",圖書館,上環文化廣場(流動圖書館九),香港上環文化廣場(文咸東街近永樂街路段)路旁停車處,CENTRAL AND WESTERN,中西區,MOBILE LIBRARY,流動圖書館,N.A.,N.A.,N.A.,N.A.,N.A.,N.A.,N.A.,N.A.,https://www.hkpl.gov.hk/en/locations/central-and-western/mobile9/lay-by-near-sheung-wan.html,https://www.hkpl.gov.hk/tc/locations/central-and-western/mobile9/lay-by-near-sheung-wan.html,22.28658,114.1499,,816410,833488
113.99894,22.45524,17,Yak3IkWjVs,Libraries,Tin Shui Estate(Mobile Library 10),"Adjacent to Tin Shui Community Centre, Tin Shui Estate, Tin Shui Wai, Yuen Long, N.T.",圖書館,天瑞邨(流動圖書館十),新界元朗天水圍天瑞邨天瑞社區中心側,YUEN LONG,元朗,MOBILE LIBRARY,流動圖書館,N.A.,N.A.,N.A.,N.A.,N.A.,N.A.,N.A.,N.A.,https://www.hkpl.gov.hk/en/locations/yuen-long/mobile10/adjacent-to-tin-shui-community-centre.html,https://www.hkpl.gov.hk/tc/locations/yuen-long/mobile10/adjacent-to-tin-shui-community-centre.html,22.45524,113.99894,,835097,817953
114.23894,22.27588,18,1DpRL3gtbR,Libraries,Heng Fa Chuen(Mobile Library 9),"Adjacent to Block 6, Shing Man Lane, Heng Fa Chuen, Chai Wan, Hong Kong",圖書館,杏花邨(流動圖書館九),香港柴灣杏花邨盛民里第六座側,EASTERN,東區,MOBILE LIBRARY,流動圖書館,N.A.,N.A.,N.A.,N.A.,N.A.,N.A.,N.A.,N.A.,http://www.hkpl.gov.hk/en/locations/eastern/mobile9/adjacent-to-block-6-shing-man.html,http://www.hkpl.gov.hk/tc/locations/eastern/mobile9/adjacent-to-block-6-shing-man.html,22.27588,114.23894,,815226,842665
114.00607,22.45917,19,qbvGNSdwzl,Libraries,Kingswood Country Club(Mobile Library 3),"Kingswood Country Club Car Park, Kingswood Villas, Tin Shui Wai",圖書館,嘉湖鄉村俱樂部(流動圖書館三),新界天水圍嘉湖山莊嘉湖鄉村俱樂部停車場,YUEN LONG,元朗,MOBILE LIBRARY,流動圖書館,N.A.,N.A.,N.A.,N.A.,N.A.,N.A.,N.A.,N.A.,https://www.hkpl.gov.hk/en/locations/yuen-long/mobile3/kingswood-country-club-parking.html,https://www.hkpl.gov.hk/tc/locations/yuen-long/mobile3/kingswood-country-club-parking.html,22.45917,114.00607,,835531,818688
114.03259,22.44339,20,JBgKZRAvyA,Libraries,Fung Cheung Road(Mobile Library 10),"Fung Cheung Road PLB (Scheduled Service) Terminus, Yuen Long, N.T.",圖書館,鳳翔路(流動圖書館十),新界元朗鳳翔路公共小型巴士(專線服務)總站,YUEN LONG,元朗,MOBILE LIBRARY,流動圖書館,N.A.,N.A.,N.A.,N.A.,N.A.,N.A.,N.A.,N.A.,https://www.hkpl.gov.hk/en/locations/yuen-long/mobile10/fung-cheung-road-plb-terminus.html,https://www.hkpl.gov.hk/tc/locations/yuen-long/mobile10/fung-cheung-road-plb-terminus.html,22.44339,114.03259,,833781,821416
114.0608,22.3505,21,TWNflejiSR,Libraries,Ma Wan(Mobile Library 1),"Adjacent to Block 15, Park Island, Ma Wan, Tsuen Wan, N.T.",圖書館,馬灣(流動圖書館一),新界荃灣馬灣珀麗灣第十五座側,TSUEN WAN,荃灣,MOBILE LIBRARY,流動圖書館,N.A.,N.A.,N.A.,N.A.,N.A.,N.A.,N.A.,N.A.,https://www.hkpl.gov.hk/en/locations/tsuen-wan/mobile1/adjacent-to-block-15-park-island.html,https://www.hkpl.gov.hk/tc/locations/tsuen-wan/mobile1/adjacent-to-block-15-park-island.html,22.3505,114.0608,,823492,824312
114.25445,22.30641,22,4fwFKERuO9,Libraries,Tiu Keng Leng Public Library,"4 Chui Ling Road, Tseung Kwan O, N.T.",圖書館,調景嶺公共圖書館,新界將軍澳翠嶺路四號,SAI KUNG,西貢,STATIC LIBRARY,固定圖書館,N.A.,N.A.,N.A.,N.A.,N.A.,N.A.,N.A.,N.A.,http://www.hkpl.gov.hk/en/locations/sai-kung/library/tiu-keng-leng.html,http://www.hkpl.gov.hk/tc/locations/sai-kung/library/tiu-keng-leng.html,22.30641,114.25445,4426118608T20140530,818608,844261
113.98389,22.41318,23,w7BABnUzzB,Libraries,Fu Tai Estate(Mobile Library 3),"Adjacent to Annex Block of Mei Tai House, Fu Tai Estate, Tuen Mun, N.T.",圖書館,富泰邨(流動圖書館三),新界屯門富泰邨美泰樓附翼側,TUEN MUN,屯門,MOBILE LIBRARY,流動圖書館,N.A.,N.A.,N.A.,N.A.,N.A.,N.A.,N.A.,N.A.,http://www.hkpl.gov.hk/en/locations/tuen-mun/mobile3/adjacent-to-annex-block-mei.html,http://www.hkpl.gov.hk/tc/locations/tuen-mun/mobile3/adjacent-to-annex-block-mei.html,22.41318,113.98389,,830441,816398
113.96221,22.40521,24,WBaq7tSblB,Libraries,Leung King Estate(Mobile Library 3),"Adjacent to Leung Chi House, Leung King Estate, Tuen Mun, N.T.",圖書館,良景邨(流動圖書館三),新界屯門良景邨良智樓側,TUEN MUN,屯門,MOBILE LIBRARY,流動圖書館,N.A.,N.A.,N.A.,N.A.,N.A.,N.A.,N.A.,N.A.,http://www.hkpl.gov.hk/en/locations/tuen-mun/mobile3/leung-chi-house-leung-king.html,http://www.hkpl.gov.hk/tc/locations/tuen-mun/mobile3/leung-chi-house-leung-king.html,22.40521,113.96221,,829562,814165
114.13155,22.37892,25,26OgrOOGrB,Libraries,Cheung Shan Estate(Mobile Library 12),"Adjacent to Sau Shan House, Cheung Shan Estate, Tsuen Wan, N.T.",圖書館,象山邨(流動圖書館十二),新界荃灣象山邨秀山樓側,TSUEN WAN,荃灣,MOBILE LIBRARY,流動圖書館,N.A.,N.A.,N.A.,N.A.,N.A.,N.A.,N.A.,N.A.,http://www.hkpl.gov.hk/en/locations/tsuen-wan/mobile12/adjacent-to-sau-shan-house.html,http://www.hkpl.gov.hk/tc/locations/tsuen-wan/mobile12/adjacent-to-sau-shan-house.html,22.37892,114.13155,,826636,831600
114.10657,22.37901,26,KZS6P6HxOE,Libraries,Tsuen King Circuit(Mobile Library 12),"Tsuen King Circuit Playground, N.T.",圖書館,荃景圍(流動圖書館十二),新界荃景圍遊樂場,TSUEN WAN,荃灣,MOBILE LIBRARY,流動圖書館,N.A.,N.A.,N.A.,N.A.,N.A.,N.A.,N.A.,N.A.,http://www.hkpl.gov.hk/en/locations/tsuen-wan/mobile12/tsuen-king-circuit-playground.html,http://www.hkpl.gov.hk/tc/locations/tsuen-wan/mobile12/tsuen-king-circuit-playground.html,22.37901,114.10657,,826647,829028
114.0592,22.36801,27,4uoeZJT5EC,Libraries,Sham Tseng(Mobile Library 12),"Sham Tseng Market Carpark, Sham Tseng, N.T.",圖書館,深井(流動圖書館十二),新界深井深井街巿停車場,TSUEN WAN,荃灣,MOBILE LIBRARY,流動圖書館,N.A.,N.A.,N.A.,N.A.,N.A.,N.A.,N.A.,N.A.,http://www.hkpl.gov.hk/en/locations/tsuen-wan/mobile12/sham-tseng-market-carpark.html,http://www.hkpl.gov.hk/tc/locations/tsuen-wan/mobile12/sham-tseng-market-carpark.html,22.36801,114.0592,,825432,824148
114.16578,22.3277,28,xFHoGR1tmx,Libraries,Maple Street(Mobile Library 2),"Adjacent to Maple Street Playground, Maple Street, Sham Shui Po, Kowloon",圖書館,楓樹街(流動圖書館二),九龍深水埗楓樹街(楓樹街遊樂場側),SHAM SHUI PO,深水埗,MOBILE LIBRARY,流動圖書館,N.A.,N.A.,N.A.,N.A.,N.A.,N.A.,N.A.,N.A.,http://www.hkpl.gov.hk/en/locations/sham-shui-po/mobile2/adjacent-to-maple-street-playground.html,http://www.hkpl.gov.hk/tc/locations/sham-shui-po/mobile2/adjacent-to-maple-street-playground.html,22.3277,114.16578,,820963,835125
114.17011,22.37562,29,pup5tAYKa7,Libraries,Mei Tin Estate(Mobile Library 5),"Adjacent to Mei Lai House, Mei Tin Estate, Sha Tin, N.T.",圖書館,美田邨(流動圖書館五),新界沙田美田邨美麗樓側,SHA TIN,沙田,MOBILE LIBRARY,流動圖書館,N.A.,N.A.,N.A.,N.A.,N.A.,N.A.,N.A.,N.A.,http://www.hkpl.gov.hk/en/locations/sha-tin/mobile5/adjacent-to-mei-lai-house.html,http://www.hkpl.gov.hk/tc/locations/sha-tin/mobile5/adjacent-to-mei-lai-house.html,22.37562,114.17011,,826270,835571
114.13598,22.37911,30,HI7C8wzeR9,Libraries,Lei Muk Shue Estate(Mobile Library 12),"Adjacent to Chung Shue House, Lei Muk Shue Estate, Tsuen Wan, N.T.",圖書館,梨木樹邨(流動圖書館十二),新界荃灣梨木樹邨松樹樓側,TSUEN WAN,荃灣,MOBILE LIBRARY,流動圖書館,N.A.,N.A.,N.A.,N.A.,N.A.,N.A.,N.A.,N.A.,http://www.hkpl.gov.hk/en/locations/tsuen-wan/mobile12/adjacent-to-chung-shue-house.html,http://www.hkpl.gov.hk/tc/locations/tsuen-wan/mobile12/adjacent-to-chung-shue-house.html,22.37911,114.13598,,826657,832056
114.19451,22.37537,31,qfOg53AF82,Libraries,Pok Hong Estate(Mobile Library 5),"Adjacent to Pok Hong Community Hall, Shatin, N.T.",圖書館,博康邨(流動圖書館五),新界沙田博康邨社區會堂側,SHA TIN,沙田,MOBILE LIBRARY,流動圖書館,N.A.,N.A.,N.A.,N.A.,N.A.,N.A.,N.A.,N.A.,http://www.hkpl.gov.hk/en/locations/sha-tin/mobile5/adjacent-to-pok-hong.html,http://www.hkpl.gov.hk/tc/locations/sha-tin/mobile5/adjacent-to-pok-hong.html,22.37537,114.19451,,826242,838084
113.965960000000109,22.39616,32,eaHbLi9v6J,Libraries,Shan King Estate(Mobile Library 3),"Adjacent to King Wing House, Shan King Estate, Tuen Mun, N.T.",圖書館,山景邨(流動圖書館三),新界屯門山景邨景榮樓側,TUEN MUN,屯門,MOBILE LIBRARY,流動圖書館,N.A.,N.A.,N.A.,N.A.,N.A.,N.A.,N.A.,N.A.,http://www.hkpl.gov.hk/en/locations/tuen-mun/mobile3/king-wing-house-shan-king.html,http://www.hkpl.gov.hk/tc/locations/tuen-mun/mobile3/king-wing-house-shan-king.html,22.39616,113.96596,,828559,814550
114.23012,22.31245,33,6OaVZQzrQp,Libraries,Tsui Ping Estate(Mobile Library 2),"Adjacent to Tsui Ying House, Tsui Ping (South) Estate, Kwun Tong, Kowloon",圖書館,翠屏邨(流動圖書館二),九龍觀塘翠屏(南)邨翠櫻樓側,KWUN TONG,觀塘,MOBILE LIBRARY,流動圖書館,N.A.,N.A.,N.A.,N.A.,N.A.,N.A.,N.A.,N.A.,http://www.hkpl.gov.hk/en/locations/kwun-tong/mobile2/adjacent-to-tsui-ying-house.html,http://www.hkpl.gov.hk/tc/locations/kwun-tong/mobile2/adjacent-to-tsui-ying-house.html,22.31245,114.23012,,819275,841754
114.22706,22.28098,34,8cpWukkGFr,Libraries,Oi Tung Estate(Mobile Library 9),"Adjacent to Oi Yuk House, Oi Tung Estate, Aldrich Bay",圖書館,愛東邨(流動圖書館九),愛秩序灣愛東邨愛旭樓側,EASTERN,東區,MOBILE LIBRARY,流動圖書館,N.A.,N.A.,N.A.,N.A.,N.A.,N.A.,N.A.,N.A.,http://www.hkpl.gov.hk/en/locations/eastern/mobile9/adjacent-to-oi-yuk-house-oi.html,http://www.hkpl.gov.hk/tc/locations/eastern/mobile9/adjacent-to-oi-yuk-house-oi.html,22.28098,114.22706,,815791,841440
114.15514,22.32889,35,HxQKWLZk1D,Libraries,Fu Cheong Estate(Mobile Library 12),"Adjacent to Fu Wong House, Fu Cheong Estate, Sham Shui Po, Kowloon",圖書館,富昌邨(流動圖書館十二),九龍深水埗富昌邨富旺樓側,SHAM SHUI PO,深水埗,MOBILE LIBRARY,流動圖書館,N.A.,N.A.,N.A.,N.A.,N.A.,N.A.,N.A.,N.A.,http://www.hkpl.gov.hk/en/locations/sham-shui-po/mobile12/adjacent-to-fu-wong-house-fu.html,http://www.hkpl.gov.hk/tc/locations/sham-shui-po/mobile12/adjacent-to-fu-wong-house-fu.html,22.32889,114.15514,,821095,834029
114.14556,22.33221,36,KSRbZoy65u,Libraries,Hoi Lai Estate(Mobile Library 10),"Adjacent to Hoi Shun House, Hoi Lai Estate, Sham Shui Po, Kowloon",圖書館,海麗邨(流動圖書館十),九龍深水埗海麗邨海信樓側,SHAM SHUI PO,深水埗,MOBILE LIBRARY,流動圖書館,N.A.,N.A.,N.A.,N.A.,N.A.,N.A.,N.A.,N.A.,http://www.hkpl.gov.hk/en/locations/sham-shui-po/mobile10/adjacent-to-hoi-shun-house.html,http://www.hkpl.gov.hk/tc/locations/sham-shui-po/mobile10/adjacent-to-hoi-shun-house.html,22.33221,114.14556,,821463,833042
114.250860000000102,22.22936,37,KVGboVDmAC,Libraries,Shek O(Mobile Library 6),"Adjacent to Shek O Beach First Aid Station, Shek O, Hong Kong",圖書館,石澳泳灘(流動圖書館六),香港石澳海灘救護站旁,SOUTHERN,南區,MOBILE LIBRARY,流動圖書館,N.A.,N.A.,N.A.,N.A.,N.A.,N.A.,N.A.,N.A.,http://www.hkpl.gov.hk/en/locations/southern/mobile6/adjacent-to-first-aid-station.html,http://www.hkpl.gov.hk/tc/locations/southern/mobile6/adjacent-to-first-aid-station.html,22.22936,114.25086,,810075,843896
114.24781,22.32404,38,MhtWEr8s2i,Libraries,Tsui Lam Estate(Mobile Library 6),"Adjacent to Choi Lam House, Tsui Lam Estate, Tseung Kwan O, N.T.",圖書館,翠林邨(流動圖書館六),新界將軍澳翠林邨彩林樓側,SAI KUNG,西貢,MOBILE LIBRARY,流動圖書館,N.A.,N.A.,N.A.,N.A.,N.A.,N.A.,N.A.,N.A.,http://www.hkpl.gov.hk/en/locations/sai-kung/mobile6/adjacent-to-choi-lam-house.html,http://www.hkpl.gov.hk/tc/locations/sai-kung/mobile6/adjacent-to-choi-lam-house.html,22.32404,114.24781,,820560,843576
114.22164,22.40827,39,XJWroc9yNk,Libraries,Kam Tai Court(Mobile Library 5),"Adjacent to Kam Kei House, Kam Tai Court, Shatin, N.T.",圖書館,錦泰苑(流動圖書館五),新界沙田錦泰苑錦基閣側,SHA TIN,沙田,MOBILE LIBRARY,流動圖書館,N.A.,N.A.,N.A.,N.A.,N.A.,N.A.,N.A.,N.A.,http://www.hkpl.gov.hk/en/locations/sha-tin/mobile5/adjacent-to-kam-kei-house-kam.html,http://www.hkpl.gov.hk/tc/locations/sha-tin/mobile5/adjacent-to-kam-kei-house-kam.html,22.40827,114.22164,,829886,840877
114.134730000000104,22.49273,40,TogjKJGHFa,Libraries,Ka Fuk Estate(Mobile Library 12),"Adjacent to Fuk Tai House, Ka Fuk Estate, Fanling, N.T.",圖書館,嘉福邨(流動圖書館十二),新界粉嶺嘉福邨福泰樓側,NORTH,北區,MOBILE LIBRARY,流動圖書館,N.A.,N.A.,N.A.,N.A.,N.A.,N.A.,N.A.,N.A.,http://www.hkpl.gov.hk/en/locations/north/mobile12/adjacent-to-fuk-tai-house-ka.html,http://www.hkpl.gov.hk/tc/locations/north/mobile12/adjacent-to-fuk-tai-house-ka.html,22.49273,114.13473,,839239,831931
114.16789,22.44261,41,sNw99Q6Htd,Libraries,Wan Tau Tong Estate(Mobile Library 11),"Wan Tau Tong Estate Shopping Centre near Wan Lam House entrance, Tai Po, N.T.",圖書館,運頭塘邨(流動圖書館十一),新界大埔運頭塘邨商場近運臨樓出口,TAI PO,大埔,MOBILE LIBRARY,流動圖書館,N.A.,N.A.,N.A.,N.A.,N.A.,N.A.,N.A.,N.A.,http://www.hkpl.gov.hk/en/locations/tai-po/mobile11/entrance-near-wan-lam-house.html,http://www.hkpl.gov.hk/tc/locations/tai-po/mobile11/entrance-near-wan-lam-house.html,22.44261,114.16789,,833688,835343
114.23934,22.31724,42,elEn3oO6kC,Libraries,Po Tat Estate(Mobile Library 8),"Adjacent to Tat On House, Po Tat Estate, Sau Mau Ping, Kowloon",圖書館,寶達邨(流動圖書館八),九龍秀茂坪寶達邨達安樓側,KWUN TONG,觀塘,MOBILE LIBRARY,流動圖書館,N.A.,N.A.,N.A.,N.A.,N.A.,N.A.,N.A.,N.A.,http://www.hkpl.gov.hk/en/locations/kwun-tong/mobile8/adjacent-to-tat-on-house-po.html,http://www.hkpl.gov.hk/tc/locations/kwun-tong/mobile8/adjacent-to-tat-on-house-po.html,22.31724,114.23934,,819806,842704
114.19217,22.30877,43,ikO5P6jtcJ,Libraries,Laguna Verde(Mobile Library 8),"Adjacent to the entrance of Tower 9, Laguna Verde, Hung Hom, Kowloon",圖書館,海逸豪園(流動圖書館八),九龍紅磡海逸豪園第九座入口側,KOWLOON CITY,九龍城,MOBILE LIBRARY,流動圖書館,N.A.,N.A.,N.A.,N.A.,N.A.,N.A.,N.A.,N.A.,http://www.hkpl.gov.hk/en/locations/kowloon-city/mobile8/adjacent-to-the-entrance-of.html,http://www.hkpl.gov.hk/tc/locations/kowloon-city/mobile8/adjacent-to-the-entrance-of.html,22.30877,114.19217,,818867,837844
114.19001,22.30352,44,hD4FVU9k5b,Libraries,Whampoa Garden(Mobile Library 1),"G/F, Podium in Site 5, Whampoa Garden, Hung Hom, Kowloon",圖書館,黃埔花園(流動圖書館一),九龍紅磡黃埔花園第五期地下平台,KOWLOON CITY,九龍城,MOBILE LIBRARY,流動圖書館,N.A.,N.A.,N.A.,N.A.,N.A.,N.A.,N.A.,N.A.,http://www.hkpl.gov.hk/en/locations/kowloon-city/mobile1/g-f-podium-in-site-5-whampoa.html,http://www.hkpl.gov.hk/tc/locations/kowloon-city/mobile1/g-f-podium-in-site-5-whampoa.html,22.30352,114.19001,,818286,837622
114.15741,22.24148,45,vIpLrAWjQG,Libraries,Lei Tung Estate(Mobile Library 6),"Adjacent to Tung Ping House, Lei Tung Estate, Ap Lei Chau, Hong Kong",圖書館,利東邨(流動圖書館六),香港鴨脷洲利東邨東平樓側,SOUTHERN,南區,MOBILE LIBRARY,流動圖書館,N.A.,N.A.,N.A.,N.A.,N.A.,N.A.,N.A.,N.A.,http://www.hkpl.gov.hk/en/locations/southern/mobile6/adjacent-to-tung-ping-house.html,http://www.hkpl.gov.hk/tc/locations/southern/mobile6/adjacent-to-tung-ping-house.html,22.24148,114.15741,,811416,834261
114.173050000000103,22.36479,46,6A8bmwAOuj,Libraries,Hin Keng Estate(Mobile Library 5),"Adjacent to Hin Yeung House, Hin Keng Estate, Shatin, N.T.",圖書館,顯徑邨(流動圖書館五),新界沙田顯徑邨顯楊樓側,SHA TIN,沙田,MOBILE LIBRARY,流動圖書館,N.A.,N.A.,N.A.,N.A.,N.A.,N.A.,N.A.,N.A.,http://www.hkpl.gov.hk/en/locations/sha-tin/mobile5/adjacent-to-hin-yeung-house.html,http://www.hkpl.gov.hk/tc/locations/sha-tin/mobile5/adjacent-to-hin-yeung-house.html,22.36479,114.17305,,825070,835874
113.93263,22.2275,47,Z8EuigLV2s,Libraries,Tong Fuk(Mobile Library 4),"Tong Fuk Public Car Park adjacent to the Tong Fuk Bus Terminal, South Lantau Road, Lantau Island, N.T.",圖書館,塘福(流動圖書館四),新界大嶼山嶼南道塘福巴士總站側塘福公共停車場,ISLANDS,離島,MOBILE LIBRARY,流動圖書館,N.A.,N.A.,N.A.,N.A.,N.A.,N.A.,N.A.,N.A.,http://www.hkpl.gov.hk/en/locations/islands/mobile4/tong-fuk-public-car-park.html,http://www.hkpl.gov.hk/tc/locations/islands/mobile4/tong-fuk-public-car-park.html,22.2275,113.93263,,809888,811087
114.04609,22.4763,48,zwOQ4Gn0VM,Libraries,Fairview Park(Mobile Library 3),"Carpark adjacent to Commercial Complex, Fairview Park, Yuen Long, N.T.",圖書館,錦繡花園(流動圖書館三),新界元朗錦繡花園商場側停車場,YUEN LONG,元朗,MOBILE LIBRARY,流動圖書館,N.A.,N.A.,N.A.,N.A.,N.A.,N.A.,N.A.,N.A.,http://www.hkpl.gov.hk/en/locations/yuen-long/mobile3/carpark-adjacent-to.html,http://www.hkpl.gov.hk/tc/locations/yuen-long/mobile3/carpark-adjacent-to.html,22.4763,114.04609,,837424,822808
114.07805,22.49896,49,ApxSRJNamr,Libraries,San Tin(Mobile Library 3),"Adjacent to San Tin Post Office Castle Peak Road, San Tin, Yuen Long, N.T.",圖書館,新田(流動圖書館三),新界元朗新田青山公路新田郵政局側,YUEN LONG,元朗,MOBILE LIBRARY,流動圖書館,N.A.,N.A.,N.A.,N.A.,N.A.,N.A.,N.A.,N.A.,http://www.hkpl.gov.hk/en/locations/yuen-long/mobile3/adjacent-to-san-tin-post.html,http://www.hkpl.gov.hk/tc/locations/yuen-long/mobile3/adjacent-to-san-tin-post.html,22.49896,114.07805,,839931,826099
114.10296,22.43171,50,PfLX3cBrXI,Libraries,Sheung Tsuen Park(Mobile Library 3),"Sheung Tsuen Park, Pat Heung, Yuen Long, N.T.",圖書館,上村公園(流動圖書館三),新界元朗八鄉上村公園,YUEN LONG,元朗,MOBILE LIBRARY,流動圖書館,N.A.,N.A.,N.A.,N.A.,N.A.,N.A.,N.A.,N.A.,http://www.hkpl.gov.hk/en/locations/yuen-long/mobile3/sheung-tsuen-park-pat-heung.html,http://www.hkpl.gov.hk/tc/locations/yuen-long/mobile3/sheung-tsuen-park-pat-heung.html,22.43171,114.10296,,832483,828659
113.98052,22.40386,51,9YGpeenZ2G,Libraries,Prime View Garden(Mobile Library 3),"Carpark adjacent to Commercial Complex, Prime View Garden, Tuen Mun, N.T.",圖書館,景峰花園(流動圖書館三),新界屯門景峰花園商埸側停車埸,TUEN MUN,屯門,MOBILE LIBRARY,流動圖書館,N.A.,N.A.,N.A.,N.A.,N.A.,N.A.,N.A.,N.A.,http://www.hkpl.gov.hk/en/locations/tuen-mun/mobile3/adjacent-to-carpark.html,http://www.hkpl.gov.hk/tc/locations/tuen-mun/mobile3/adjacent-to-carpark.html,22.40386,113.98052,,829410,816050
113.97745,22.41319,52,TGEOzImnqz,Libraries,Siu Hong Court(Mobile Library 3),"Adjacent to Siu Fai House, Siu Hong Court, Tuen Mun, N.T.",圖書館,兆康苑(流動圖書館三),新界屯門兆康苑兆暉閣側,TUEN MUN,屯門,MOBILE LIBRARY,流動圖書館,N.A.,N.A.,N.A.,N.A.,N.A.,N.A.,N.A.,N.A.,http://www.hkpl.gov.hk/en/locations/tuen-mun/mobile3/siu-fai-house-siu-hong-court.html,http://www.hkpl.gov.hk/tc/locations/tuen-mun/mobile3/siu-fai-house-siu-hong-court.html,22.41319,113.97745,,830443,815735
113.978660000000104,22.38074,53,Ra6hMhafGy,Libraries,Sam Shing Estate(Mobile Library 3),"Adjacent to Moon Yu House, Sam Shing Estate, Tuen Mun, N.T.",圖書館,三聖邨(流動圖書館三),新界屯門三聖邨滿漁樓側,TUEN MUN,屯門,MOBILE LIBRARY,流動圖書館,N.A.,N.A.,N.A.,N.A.,N.A.,N.A.,N.A.,N.A.,http://www.hkpl.gov.hk/en/locations/tuen-mun/mobile3/moon-yu-house-sam-shing.html,http://www.hkpl.gov.hk/tc/locations/tuen-mun/mobile3/moon-yu-house-sam-shing.html,22.38074,113.97866,,826850,815855
114.1606,22.5247,54,Hl0xQQ7QwF,Libraries,Ta Kwu Ling(Mobile Library 2),"Carpark adjacent to Ta Kwu Ling Rural Centre Government Building, 136 Ping Che Road, Ta Kwu Ling, N.T.",圖書館,打鼓嶺(流動圖書館二),新界打鼓嶺坪輋路打鼓嶺鄉村中心政府大樓側之停車場,NORTH,北區,MOBILE LIBRARY,流動圖書館,N.A.,N.A.,N.A.,N.A.,N.A.,N.A.,N.A.,N.A.,http://www.hkpl.gov.hk/en/locations/north/mobile2/adjacent-to-carpark-ta-kwu.html,http://www.hkpl.gov.hk/tc/locations/north/mobile2/adjacent-to-carpark-ta-kwu.html,22.5247,114.1606,,842778,834594
114.19415,22.39401,55,ZXNc5JpXKM,Libraries,Sui Wo Court(Mobile Library 2),"Sports ground adjacent to Fung Yat House, Sui Wo Court, Shatin, N.T.",圖書館,穗禾苑(流動圖書館二),新界沙田穗禾苑豐逸閣側運動場,SHA TIN,沙田,MOBILE LIBRARY,流動圖書館,N.A.,N.A.,N.A.,N.A.,N.A.,N.A.,N.A.,N.A.,http://www.hkpl.gov.hk/en/locations/sha-tin/mobile2/adjacent-to-wing-mau-house.html,http://www.hkpl.gov.hk/tc/locations/sha-tin/mobile2/adjacent-to-wing-mau-house.html,22.39401,114.19415,,828306,838047
114.15123,22.2526,56,qLp6p1SOG1,Libraries,Tin Wan Estate(Mobile Library 9),"Adjacent to Tin Lai House, Tin Wan Estate, Hong Kong",圖書館,田灣邨(流動圖書館九),香港田灣邨田麗樓側,SOUTHERN,南區,MOBILE LIBRARY,流動圖書館,N.A.,N.A.,N.A.,N.A.,N.A.,N.A.,N.A.,N.A.,http://www.hkpl.gov.hk/en/locations/southern/mobile9/adjacent-to-tin-lai-house-tin.html,http://www.hkpl.gov.hk/tc/locations/southern/mobile9/adjacent-to-tin-lai-house-tin.html,22.2526,114.15123,,812647,833625
114.228750000000105,22.32096,57,UjJv0UeFtO,Libraries,Hiu Lai Court(Mobile Library 8),"Adjacent to Hiu Ching House, Hiu Lai Court, Sau Mau Ping, Kowloon",圖書館,曉麗苑(流動圖書館八),九龍秀茂坪曉麗苑曉晴閣側,KWUN TONG,觀塘,MOBILE LIBRARY,流動圖書館,N.A.,N.A.,N.A.,N.A.,N.A.,N.A.,N.A.,N.A.,http://www.hkpl.gov.hk/en/locations/kwun-tong/mobile8/adjacent-to-hiu-ching-house.html,http://www.hkpl.gov.hk/tc/locations/kwun-tong/mobile8/adjacent-to-hiu-ching-house.html,22.32096,114.22875,,820218,841613
114.24144,22.29716,58,5PeeLezGnD,Libraries,Ko Yee Estate(Mobile Library 1),"Adjacent to Ko Chi House, Ko Yee Estate, Yau Tong, Kowloon",圖書館,高怡邨(流動圖書館一),九龍油塘高怡邨高志樓側,KWUN TONG,觀塘,MOBILE LIBRARY,流動圖書館,N.A.,N.A.,N.A.,N.A.,N.A.,N.A.,N.A.,N.A.,http://www.hkpl.gov.hk/en/locations/kwun-tong/mobile1/adjacent-to-ko-chi-house-ko.html,http://www.hkpl.gov.hk/tc/locations/kwun-tong/mobile1/adjacent-to-ko-chi-house-ko.html,22.29716,114.24144,,817583,842921
114.16401,22.31639,59,IBvnCTrJkK,Libraries,Hoi Fu Court(Mobile Library 7),"Adjacent to Hoi Ning House, Hoi Fu Court, Mong Kok West, Kowloon",圖書館,海富苑(流動圖書館七),九龍旺角西海富苑海寧閣側,YAU TSIM MONG,油尖旺,MOBILE LIBRARY,流動圖書館,N.A.,N.A.,N.A.,N.A.,N.A.,N.A.,N.A.,N.A.,http://www.hkpl.gov.hk/en/locations/yau-tsim-mong/mobile7/adjacent-to-hoi-ning-house.html,http://www.hkpl.gov.hk/tc/locations/yau-tsim-mong/mobile7/adjacent-to-hoi-ning-house.html,22.31639,114.16401,,819711,834943
114.1863,22.34567,60,dDJGj9shwT,Libraries,Tsui Chuk Garden(Mobile Library 1),"Adjacent to Block 6, Tsui Chuk Garden, Wong Tai Sin, Kowloon",圖書館,翠竹花園(流動圖書館一),九龍黃大仙翠竹花園第六座側,WONG TAI SIN,黃大仙,MOBILE LIBRARY,流動圖書館,N.A.,N.A.,N.A.,N.A.,N.A.,N.A.,N.A.,N.A.,http://www.hkpl.gov.hk/en/locations/wong-tai-sin/mobile1/adjacent-to-block-6-tsui-chuk.html,http://www.hkpl.gov.hk/tc/locations/wong-tai-sin/mobile1/adjacent-to-block-6-tsui-chuk.html,22.34567,114.1863,,822953,837239
114.12507,22.49326,61,5BXZ0rJYLD,Libraries,Ching Ho Estate(Mobile Library 10),"Adjacent to Ching Chiu House, Ching Ho Estate, Sheung Shui, N.T.",圖書館,清河邨(流動圖書館十),新界上水清河邨清照樓側,NORTH,北區,MOBILE LIBRARY,流動圖書館,N.A.,N.A.,N.A.,N.A.,N.A.,N.A.,N.A.,N.A.,http://www.hkpl.gov.hk/en/locations/north/mobile10/adjacent-to-ching-chiu-house.html,http://www.hkpl.gov.hk/tc/locations/north/mobile10/adjacent-to-ching-chiu-house.html,22.49326,114.12507,,839297,830937
114.25425,22.32572,62,5AEWN21UPV,Libraries,Po Lam Estate(Mobile Library 2),"Adjacent to Po Ning House(West), Po Lam Estate, Tseung Kwan O, N.T.",圖書館,寶林邨(流動圖書館二),新界將軍澳寶林邨寶寧樓(西座)側,SAI KUNG,西貢,MOBILE LIBRARY,流動圖書館,N.A.,N.A.,N.A.,N.A.,N.A.,N.A.,N.A.,N.A.,http://www.hkpl.gov.hk/en/locations/sai-kung/mobile2/adjacent-to-po-ning-housewest.html,http://www.hkpl.gov.hk/tc/locations/sai-kung/mobile2/adjacent-to-po-ning-housewest.html,22.32572,114.25425,,820746,844240
113.96591,22.38424,63,X5vaNpi3AX,Libraries,Lung Mun Oasis(Mobile Library 10),"Adjacent to Block 1, Lung Mun Oasis, Tuen Mun, N.T.",圖書館,龍門居(流動圖書館十),新界屯門龍門居第一座側,TUEN MUN,屯門,MOBILE LIBRARY,流動圖書館,N.A.,N.A.,N.A.,N.A.,N.A.,N.A.,N.A.,N.A.,http://www.hkpl.gov.hk/en/locations/tuen-mun/mobile10/adjacent-to-block-1-lung-mun.html,http://www.hkpl.gov.hk/tc/locations/tuen-mun/mobile10/adjacent-to-block-1-lung-mun.html,22.38424,113.96591,,827239,814543
113.99686,22.434,64,GKqeEpab9a,Libraries,Hung Shui Kiu(Mobile Library 10),"Adjacent to Block 3, Aster Court, Hung Shui Kiu, Tin Shui Wai, N.T.",圖書館,洪水橋(流動圖書館十),新界元朗洪水橋雅珊園第三座側,YUEN LONG,元朗,MOBILE LIBRARY,流動圖書館,N.A.,N.A.,N.A.,N.A.,N.A.,N.A.,N.A.,N.A.,http://www.hkpl.gov.hk/en/locations/yuen-long/mobile10/adjacent-to-block-3-aster.html,http://www.hkpl.gov.hk/tc/locations/yuen-long/mobile10/adjacent-to-block-3-aster.html,22.434,113.99686,,832745,817736
114.09626,22.35688,65,OrG3YAbgp3,Libraries,Cheung Wang Estate(Mobile Library 10),"Adjacent to Wang Ngai House, Cheung Wang Estate, Tsing Yi, N.T.",圖書館,長宏邨(流動圖書館十),新界青衣長宏邨宏毅樓側,KWAI TSING,葵青,MOBILE LIBRARY,流動圖書館,N.A.,N.A.,N.A.,N.A.,N.A.,N.A.,N.A.,N.A.,http://www.hkpl.gov.hk/en/locations/kwai-tsing/mobile10/adjacent-to-wang-ngai-house.html,http://www.hkpl.gov.hk/tc/locations/kwai-tsing/mobile10/adjacent-to-wang-ngai-house.html,22.35688,114.09626,,824197,827965
113.99661,22.46074,66,TEMBSxBOCI,Libraries,Tin Wah Estate(Mobile Library 11),"Adjacent to the car park entrance of the Ancillary Facilities Block, Tin Wah Estate, Tin Shui Wai, N.T.",圖書館,天華邨(流動圖書館十一),新界天水圍天華邨服務設施大樓停車場入口側,YUEN LONG,元朗,MOBILE LIBRARY,流動圖書館,N.A.,N.A.,N.A.,N.A.,N.A.,N.A.,N.A.,N.A.,http://www.hkpl.gov.hk/en/locations/yuen-long/mobile11/adjacent-to-the-carpark.html,http://www.hkpl.gov.hk/tc/locations/yuen-long/mobile11/adjacent-to-the-carpark.html,22.46074,113.99661,,835706,817714
114.14349,22.48596,67,nw4qdrxoj8,Libraries,Wah Sum Estate(Mobile Library 12),"Adjacent to Wah Min House, Wah Sum Estate, Fanling, N.T.",圖書館,華心邨(流動圖書館十二),新界粉嶺華心邨華勉樓側,NORTH,北區,MOBILE LIBRARY,流動圖書館,N.A.,N.A.,N.A.,N.A.,N.A.,N.A.,N.A.,N.A.,http://www.hkpl.gov.hk/en/locations/north/mobile12/adjacent-to-wah-min-house-wah.html,http://www.hkpl.gov.hk/tc/locations/north/mobile12/adjacent-to-wah-min-house-wah.html,22.48596,114.14349,,838489,832833
114.23035,22.27815,68,S3zAUYVrO6,Libraries,Shau Kei Wan(Mobile Library 6),"In front of Shau Kei Wan Market, Shau Kei Wan Main Street East, Shau Kei Wan, Hong Kong",圖書館,筲箕灣東大街(流動圖書館六),香港筲箕灣筲箕灣東大街筲箕灣街市前,EASTERN,東區,MOBILE LIBRARY,流動圖書館,N.A.,N.A.,N.A.,N.A.,N.A.,N.A.,N.A.,N.A.,http://www.hkpl.gov.hk/en/locations/eastern/mobile6/in-front-of-shau-kei-wan.html,http://www.hkpl.gov.hk/tc/locations/eastern/mobile6/in-front-of-shau-kei-wan.html,22.27815,114.23035,,815477,841779
114.09984,22.37009,69,FH8qunhWMz,Libraries,Bayview Garden(Mobile Library 12),"Adjacent to Block 5, Bayview Garden, Tsuen Wan, N.T.",圖書館,灣景花園(流動圖書館十二),新界荃灣灣景花園第五座側,TSUEN WAN,荃灣,MOBILE LIBRARY,流動圖書館,N.A.,N.A.,N.A.,N.A.,N.A.,N.A.,N.A.,N.A.,http://www.hkpl.gov.hk/en/locations/tsuen-wan/mobile12/adjacent-to-block-5-bayview.html,http://www.hkpl.gov.hk/tc/locations/tsuen-wan/mobile12/adjacent-to-block-5-bayview.html,22.37009,114.09984,,825659,828334
114.25051,22.30571,70,IjIhKRAi3p,Libraries,Kin Ming Estate(Mobile Library 5),"Adjacent to Kin Ching House, Kin Ming Estate, Tseung Kwan O, N.T.",圖書館,健明邨(流動圖書館五),新界將軍澳健明邨健晴樓側,SAI KUNG,西貢,MOBILE LIBRARY,流動圖書館,N.A.,N.A.,N.A.,N.A.,N.A.,N.A.,N.A.,N.A.,http://www.hkpl.gov.hk/en/locations/sai-kung/mobile5/adjacent-to-kin-ching-house.html,http://www.hkpl.gov.hk/tc/locations/sai-kung/mobile5/adjacent-to-kin-ching-house.html,22.30571,114.25051,,818530,843855
114.223570000000109,22.28659,71,CdPV438GV8,Libraries,Lei King Wan(Mobile Library 9),"Adjacent to Yat Sing Mansion, Tai Hong Street, Lei King Wan, Hong Kong",圖書館,鯉景灣(流動圖書館九),香港鯉景灣太康街逸星閣側,EASTERN,東區,MOBILE LIBRARY,流動圖書館,N.A.,N.A.,N.A.,N.A.,N.A.,N.A.,N.A.,N.A.,http://www.hkpl.gov.hk/en/locations/eastern/mobile9/adjacent-to-yat-sing-mansion.html,http://www.hkpl.gov.hk/tc/locations/eastern/mobile9/adjacent-to-yat-sing-mansion.html,22.28659,114.22357,,816412,841080
114.20987,22.32961,72,7mrRYiCPeh,Libraries,Kai Yip Estate(Mobile Library 7),"Adjacent to Kai Ning House, Kai Yip Estate, Kwun Tong, Kowloon",圖書館,啟業邨(流動圖書館七),九龍觀塘啟業邨啟寧樓側,KWUN TONG,觀塘,MOBILE LIBRARY,流動圖書館,N.A.,N.A.,N.A.,N.A.,N.A.,N.A.,N.A.,N.A.,http://www.hkpl.gov.hk/en/locations/kwun-tong/mobile7/adjacent-to-kai-ning-house.html,http://www.hkpl.gov.hk/tc/locations/kwun-tong/mobile7/adjacent-to-kai-ning-house.html,22.32961,114.20987,,821175,839667
114.171,22.33165,73,A4wnu9CiG8,Libraries,Tai Hang Tung Estate(Mobile Library 8),"Adjacent to Tung Lung House, Tai Hang Tung Estate, Tai Hang Tung Road, Sham Shui Po, Kowloon",圖書館,大坑東邨(流動圖書館八),九龍深水埗大坑東道大坑東邨東龍樓側(舊2C巴士站),SHAM SHUI PO,深水埗,MOBILE LIBRARY,流動圖書館,N.A.,N.A.,N.A.,N.A.,N.A.,N.A.,N.A.,N.A.,http://www.hkpl.gov.hk/en/locations/sham-shui-po/mobile8/tai-hang-tung-estate.html,http://www.hkpl.gov.hk/tc/locations/sham-shui-po/mobile8/tai-hang-tung-estate.html,22.33165,114.171,,821401,835663
114.227350000000115,22.30614,74,uJnHwBAoB2,Libraries,Laguna City(Mobile Library 8),"Adjacent to Phase I, Club House, Laguna City, Kwun Tong, Kowloon",圖書館,麗港城(流動圖書館八),九龍觀塘麗港城第一期住客俱樂部側,KWUN TONG,觀塘,MOBILE LIBRARY,流動圖書館,N.A.,N.A.,N.A.,N.A.,N.A.,N.A.,N.A.,N.A.,http://www.hkpl.gov.hk/en/locations/kwun-tong/mobile8/adjacent-to-phase-i-club.html,http://www.hkpl.gov.hk/tc/locations/kwun-tong/mobile8/adjacent-to-phase-i-club.html,22.30614,114.22735,,818577,841469
114.19154,22.34451,75,Thf5NUmL8z,Libraries,Chuk Yuen (S) Estate(Mobile Library 7),"Carpark, Wah Yuen House, Chuk Yuen (South) Estate, Wong Tai Sin, Kowloon",圖書館,竹園(南)邨(流動圖書館七),九龍黃大仙竹園(南)邨華園樓停車場,WONG TAI SIN,黃大仙,MOBILE LIBRARY,流動圖書館,N.A.,N.A.,N.A.,N.A.,N.A.,N.A.,N.A.,N.A.,http://www.hkpl.gov.hk/en/locations/wong-tai-sin/mobile7/carpark-wah-yuen-house-chuk.html,http://www.hkpl.gov.hk/tc/locations/wong-tai-sin/mobile7/carpark-wah-yuen-house-chuk.html,22.34451,114.19154,,822825,837779
114.23374,22.30733,76,Jv0ryYina0,Libraries,Sceneway Garden(Mobile Library 7),"Phase A Driveway adjacent to Block 4 Sceneway Garden, Lam Tin, Kowloon",圖書館,匯景花園(流動圖書館七),九龍藍田滙景花園第A期近第4座車路側,KWUN TONG,觀塘,MOBILE LIBRARY,流動圖書館,N.A.,N.A.,N.A.,N.A.,N.A.,N.A.,N.A.,N.A.,http://www.hkpl.gov.hk/en/locations/kwun-tong/mobile7/adjacent-to-block-4-phase-a.html,http://www.hkpl.gov.hk/tc/locations/kwun-tong/mobile7/adjacent-to-block-4-phase-a.html,22.30733,114.23374,,818709,842127
114.16673,22.45242,77,YCqlZDkOi0,Libraries,On Ho Lane(Mobile Library 5),"Adjacent to Eightland Gardens, On Ho Lane, Tai Po, N.T.",圖書館,安浩里(流動圖書館五),新界大埔安浩里八號花園側,TAI PO,大埔,MOBILE LIBRARY,流動圖書館,N.A.,N.A.,N.A.,N.A.,N.A.,N.A.,N.A.,N.A.,http://www.hkpl.gov.hk/en/locations/tai-po/mobile5/adjacent-to-eightland-gardens.html,http://www.hkpl.gov.hk/tc/locations/tai-po/mobile5/adjacent-to-eightland-gardens.html,22.45242,114.16673,,834774,835224
114.16158,22.45227,78,122RXbumcN,Libraries,Tai Wo Estate(Mobile Library 5),"Adjacent to Tai Wo Shopping Arcade, Oi Wo House, Tai Wo Estate, Tai Po, N.T.",圖書館,太和邨(流動圖書館五),新界大埔太和邨愛和樓太和商場出口,TAI PO,大埔,MOBILE LIBRARY,流動圖書館,N.A.,N.A.,N.A.,N.A.,N.A.,N.A.,N.A.,N.A.,http://www.hkpl.gov.hk/en/locations/tai-po/mobile5/adjacent-to-tai-wo.html,http://www.hkpl.gov.hk/tc/locations/tai-po/mobile5/adjacent-to-tai-wo.html,22.45227,114.16158,,834758,834694
114.20054,22.34367,79,h4XdNRireO,Libraries,Fung Tak Estate(Mobile Library 7),"Adjacent to Ngan Fung House, Fung Tak Estate, Wong Tai Sin, Kowloon",圖書館,鳳德邨(流動圖書館七),九龍黃大仙鳳德邨銀鳳樓側,WONG TAI SIN,黃大仙,MOBILE LIBRARY,流動圖書館,N.A.,N.A.,N.A.,N.A.,N.A.,N.A.,N.A.,N.A.,http://www.hkpl.gov.hk/en/locations/wong-tai-sin/mobile7/adjacent-to-ngan-fung-house.html,http://www.hkpl.gov.hk/tc/locations/wong-tai-sin/mobile7/adjacent-to-ngan-fung-house.html,22.34367,114.20054,,822732,838706
114.15078,22.24474,80,y4ASfh9f6n,Libraries,Ap Lei Chau Estate(Mobile Library 6),"Adjacent to Lei Tim House, Ap Lei Chau Estate, Ap Lei Chau, Hong Kong",圖書館,鴨脷洲邨(流動圖書館六),香港鴨脷洲鴨脷洲邨利添樓側,SOUTHERN,南區,MOBILE LIBRARY,流動圖書館,N.A.,N.A.,N.A.,N.A.,N.A.,N.A.,N.A.,N.A.,http://www.hkpl.gov.hk/en/locations/southern/mobile6/adjacent-to-lei-tim-house-ap.html,http://www.hkpl.gov.hk/tc/locations/southern/mobile6/adjacent-to-lei-tim-house-ap.html,22.24474,114.15078,,811777,833578
114.12379,22.36953,81,FDLnzZitEo,Libraries,Tai Wo Hau Estate(Mobile Library 12),"Adjacent to Fu Pik House, Tai Wo Hau Estate, Tai Wo Hau, N.T.",圖書館,大窩口邨(流動圖書館十二),新界大窩口大窩口邨富碧樓側,KWAI TSING,葵青,MOBILE LIBRARY,流動圖書館,N.A.,N.A.,N.A.,N.A.,N.A.,N.A.,N.A.,N.A.,http://www.hkpl.gov.hk/en/locations/kwai-tsing/mobile12/adjacent-to-fu-pik-house-tai.html,http://www.hkpl.gov.hk/tc/locations/kwai-tsing/mobile12/adjacent-to-fu-pik-house-tai.html,22.36953,114.12379,,825596,830801
114.26957,22.31676,82,8ZbAmiBeMi,Libraries,Ming Tak Estate(Mobile Library 5),"Adjacent to Ming Toa House, Ming Tak Estate, Tseung Kwan O, N.T.",圖書館,明德邨(流動圖書館五),新界將軍澳明德邨明道樓側,SAI KUNG,西貢,MOBILE LIBRARY,流動圖書館,N.A.,N.A.,N.A.,N.A.,N.A.,N.A.,N.A.,N.A.,http://www.hkpl.gov.hk/en/locations/sai-kung/mobile5/adjacent-to-ming-toa-house.html,http://www.hkpl.gov.hk/tc/locations/sai-kung/mobile5/adjacent-to-ming-toa-house.html,22.31676,114.26957,,819755,845819
114.17607,22.45479,83,hpAkg3szHz,Libraries,Fu Shin Estate(Mobile Library 5),"Adjacent to Shin Mei House, Fu Shin Estate, Tai Po, N.T.",圖書館,富善邨(流動圖書館五),新界大埔富善邨善美樓側,TAI PO,大埔,MOBILE LIBRARY,流動圖書館,N.A.,N.A.,N.A.,N.A.,N.A.,N.A.,N.A.,N.A.,http://www.hkpl.gov.hk/en/locations/tai-po/mobile5/adjacent-to-shin-mei-house-fu.html,http://www.hkpl.gov.hk/tc/locations/tai-po/mobile5/adjacent-to-shin-mei-house-fu.html,22.45479,114.17607,,835036,836185
114.17143,22.45929,84,enRFnzu3aj,Libraries,Fu Heng Estate(Mobile Library 5),"Adjacent to Heng Tsui House, Fu Heng Estate, Tai Po, N.T.",圖書館,富亨邨(流動圖書館五),新界大埔富亨邨亨翠樓側,TAI PO,大埔,MOBILE LIBRARY,流動圖書館,N.A.,N.A.,N.A.,N.A.,N.A.,N.A.,N.A.,N.A.,http://www.hkpl.gov.hk/en/locations/tai-po/mobile5/adjacent-to-heng-tsui-house.html,http://www.hkpl.gov.hk/tc/locations/tai-po/mobile5/adjacent-to-heng-tsui-house.html,22.45929,114.17143,,835535,835708
114.22407,22.40524,85,1QdYXT7J56,Libraries,Chevalier Garden(Mobile Library 5),"Carpark adjacent to Chevalier Garden Shopping Mall, Shatin, N.T.",圖書館,富安花園(流動圖書館五),新界沙田富安花園商場側之停車場,SHA TIN,沙田,MOBILE LIBRARY,流動圖書館,N.A.,N.A.,N.A.,N.A.,N.A.,N.A.,N.A.,N.A.,http://www.hkpl.gov.hk/en/locations/sha-tin/mobile5/carpark-adjacent-to-chevalier.html,http://www.hkpl.gov.hk/tc/locations/sha-tin/mobile5/carpark-adjacent-to-chevalier.html,22.40524,114.22407,,829550,841128
114.235230000000115,22.42162,86,qv2HWr60if,Libraries,Kam Ying Court(Mobile Library 5),"Open space adjacent to Kam Yee House, Kam Ying Court, Shatin, N.T.",圖書館,錦英苑(流動圖書館五),新界沙田錦英苑錦義閣側平台廣場,SHA TIN,沙田,MOBILE LIBRARY,流動圖書館,N.A.,N.A.,N.A.,N.A.,N.A.,N.A.,N.A.,N.A.,http://www.hkpl.gov.hk/en/locations/sha-tin/mobile5/adjacent-to-kam-yee-house-kam.html,http://www.hkpl.gov.hk/tc/locations/sha-tin/mobile5/adjacent-to-kam-yee-house-kam.html,22.42162,114.23523,,831365,842276
113.91583,22.22183,87,rDpFivdLhD,Libraries,Shui Hau(Mobile Library 4),"Shui Hau Public Car Park, South Lantau Road, Lantau Island, N.T.",圖書館,水口(流動圖書館四),新界大嶼山嶼南道水口公共停車場,ISLANDS,離島,MOBILE LIBRARY,流動圖書館,N.A.,N.A.,N.A.,N.A.,N.A.,N.A.,N.A.,N.A.,http://www.hkpl.gov.hk/en/locations/islands/mobile4/shui-hau-public-car-park.html,http://www.hkpl.gov.hk/tc/locations/islands/mobile4/shui-hau-public-car-park.html,22.22183,113.91583,,809263,809354
114.10826,22.34545,88,oGExd8FFdm,Libraries,Cheung Ching Estate(Mobile Library 11),"Adjacent to Ching Wai House, Cheung Ching Estate, Tsing Yi, N.T.",圖書館,長青邨(流動圖書館十一),新界青衣長青邨青槐樓側,KWAI TSING,葵青,MOBILE LIBRARY,流動圖書館,N.A.,N.A.,N.A.,N.A.,N.A.,N.A.,N.A.,N.A.,http://www.hkpl.gov.hk/en/locations/kwai-tsing/mobile11/adjacent-to-ching-wai-house.html,http://www.hkpl.gov.hk/tc/locations/kwai-tsing/mobile11/adjacent-to-ching-wai-house.html,22.34545,114.10826,,822930,829200
114.20876,22.46817,89,I5ogF2Eoip,Libraries,Shuen Wan(Mobile Library 2),"Open Space of the Joint Village Office for Villages in Shuen Wan, Tai Po, N.T.",圖書館,船灣(流動圖書館二),新界大埔船灣聯村村公所廣場,TAI PO,大埔,MOBILE LIBRARY,流動圖書館,N.A.,N.A.,N.A.,N.A.,N.A.,N.A.,N.A.,N.A.,http://www.hkpl.gov.hk/en/locations/tai-po/mobile2/open-space-of-the-joint.html,http://www.hkpl.gov.hk/tc/locations/tai-po/mobile2/open-space-of-the-joint.html,22.46817,114.20876,,836518,839550
114.1266,22.36966,90,sRxZCoCav3,Libraries,Kwai Chung Estate(Mobile Library 10),"Adjacent to Yuk Kwai House, Kwai Chung Estate, Kwai Chung, N.T.",圖書館,葵涌邨(流動圖書館十),新界葵涌葵涌邨旭葵樓側,KWAI TSING,葵青,MOBILE LIBRARY,流動圖書館,N.A.,N.A.,N.A.,N.A.,N.A.,N.A.,N.A.,N.A.,http://www.hkpl.gov.hk/en/locations/kwai-tsing/mobile10/adjacent-to-yuk-kwai-house.html,http://www.hkpl.gov.hk/tc/locations/kwai-tsing/mobile10/adjacent-to-yuk-kwai-house.html,22.36966,114.1266,,825610,831090
114.12616,22.36432,91,TOSA64nJQ9,Libraries,Kwai Shing (E) Estate(Mobile Library 11),"Adjacent to Shing On House, Kwai Shing East Estate, Kwai Chung, N.T.",圖書館,葵盛東邨(流動圖書館十一),新界葵涌葵盛東邨盛安樓側,KWAI TSING,葵青,MOBILE LIBRARY,流動圖書館,N.A.,N.A.,N.A.,N.A.,N.A.,N.A.,N.A.,N.A.,http://www.hkpl.gov.hk/en/locations/kwai-tsing/mobile11/adjacent-to-shing-on-house.html,http://www.hkpl.gov.hk/tc/locations/kwai-tsing/mobile11/adjacent-to-shing-on-house.html,22.36432,114.12616,,825019,831045
114.26386,22.31888,92,RtEWOu5vNT,Libraries,Hau Tak Estate(Mobile Library 2),"Adjacent to Tak Chak House, Hau Tak Estate, Tseung Kwan O, N.T.",圖書館,厚德邨(流動圖書館二),新界將軍澳厚德邨德澤樓側,SAI KUNG,西貢,MOBILE LIBRARY,流動圖書館,N.A.,N.A.,N.A.,N.A.,N.A.,N.A.,N.A.,N.A.,http://www.hkpl.gov.hk/en/locations/sai-kung/mobile2/adjacent-to-tak-chak-house.html,http://www.hkpl.gov.hk/tc/locations/sai-kung/mobile2/adjacent-to-tak-chak-house.html,22.31888,114.26386,,819989,845230
114.25943,22.31145,93,VVTZ6w9fqa,Libraries,Sheung Tak Estate(Mobile Library 2),"Adjacent to Sheung Tak Shopping Centre, Sheung Tak Estate, Tseung Kwan O, N.T.",圖書館,尚德邨(流動圖書館二),新界將軍澳尚德邨商場側,SAI KUNG,西貢,MOBILE LIBRARY,流動圖書館,N.A.,N.A.,N.A.,N.A.,N.A.,N.A.,N.A.,N.A.,http://www.hkpl.gov.hk/en/locations/sai-kung/mobile2/parking-area-adjacent-to.html,http://www.hkpl.gov.hk/tc/locations/sai-kung/mobile2/parking-area-adjacent-to.html,22.31145,114.25943,,819166,844774
114.17456,22.44763,94,ClXIsiKYZg,Libraries,Kwong Fuk Estate(Mobile Library 12),"Adjacent to Kwong Yau House, Kwong Fuk Estate, Tai Po, N.T.",圖書館,廣福邨(流動圖書館十二),新界大埔廣福邨廣祐樓側,TAI PO,大埔,MOBILE LIBRARY,流動圖書館,N.A.,N.A.,N.A.,N.A.,N.A.,N.A.,N.A.,N.A.,http://www.hkpl.gov.hk/en/locations/tai-po/mobile12/adjacent-to-kwong-yau-house.html,http://www.hkpl.gov.hk/tc/locations/tai-po/mobile12/adjacent-to-kwong-yau-house.html,22.44763,114.17456,,834244,836030
114.16932,22.45493,95,3BpXHfeogW,Libraries,Tai Yuen Estate(Mobile Library 11),"Adjacent to Tai Man House, Tai Yuen Estate, Tai Po, N.T.",圖書館,大元邨(流動圖書館十一),新界大埔大元邨泰民樓側,TAI PO,大埔,MOBILE LIBRARY,流動圖書館,N.A.,N.A.,N.A.,N.A.,N.A.,N.A.,N.A.,N.A.,http://www.hkpl.gov.hk/en/locations/tai-po/mobile11/playground-adjacent-to-tai.html,http://www.hkpl.gov.hk/tc/locations/tai-po/mobile11/playground-adjacent-to-tai.html,22.45493,114.16932,,835052,835490
114.21473,22.38093,96,ZBaU1X6Vq2,Libraries,Kwong Yuen Estate(Mobile Library 11),"Adjacent to Kwong Yuen Community Hall, Kwong Yuen Estate, Shatin, N.T.",圖書館,廣源邨(流動圖書館十一),新界沙田廣源邨社區會堂側,SHA TIN,沙田,MOBILE LIBRARY,流動圖書館,N.A.,N.A.,N.A.,N.A.,N.A.,N.A.,N.A.,N.A.,http://www.hkpl.gov.hk/en/locations/sha-tin/mobile11/adjacent-to-kwong-yuen.html,http://www.hkpl.gov.hk/tc/locations/sha-tin/mobile11/adjacent-to-kwong-yuen.html,22.38093,114.21473,,826858,840167
114.18259,22.3702,97,2Fzxv2yKoU,Libraries,Sun Chui Estate(Mobile Library 11),"Adjacent to Sun Kit House, Sun Chui Estate, Shatin, N.T.",圖書館,新翠邨(流動圖書館十一),新界沙田新翠邨新傑樓側,SHA TIN,沙田,MOBILE LIBRARY,流動圖書館,N.A.,N.A.,N.A.,N.A.,N.A.,N.A.,N.A.,N.A.,http://www.hkpl.gov.hk/en/locations/sha-tin/mobile11/adjacent-to-sun-kit-house-sun.html,http://www.hkpl.gov.hk/tc/locations/sha-tin/mobile11/adjacent-to-sun-kit-house-sun.html,22.3702,114.18259,,825669,836857
114.17707,22.37748,98,Z1sUss5k3B,Libraries,Mei Lam Estate(Mobile Library 2),"Adjacent to Mei Tao House, Mei Lam Estate, Shatin, N.T.",圖書館,美林邨(流動圖書館二),新界沙田美林邨美桃樓側,SHA TIN,沙田,MOBILE LIBRARY,流動圖書館,N.A.,N.A.,N.A.,N.A.,N.A.,N.A.,N.A.,N.A.,http://www.hkpl.gov.hk/en/locations/sha-tin/mobile2/adjacent-to-mei-tao-house-mei.html,http://www.hkpl.gov.hk/tc/locations/sha-tin/mobile2/adjacent-to-mei-tao-house-mei.html,22.37748,114.17707,,826475,836288
114.24198,22.4268,99,Ir9JJkVy0O,Libraries,Lee On Estate(Mobile Library 2),"Adjacent to Lee Wah House, Lee On Estate, Ma On Shan, N.T.",圖書館,利安邨(流動圖書館二),新界馬鞍山利安邨利華樓側,SHA TIN,沙田,MOBILE LIBRARY,流動圖書館,N.A.,N.A.,N.A.,N.A.,N.A.,N.A.,N.A.,N.A.,http://www.hkpl.gov.hk/en/locations/sha-tin/mobile2/adjacent-to-lee-wah-house-lee.html,http://www.hkpl.gov.hk/tc/locations/sha-tin/mobile2/adjacent-to-lee-wah-house-lee.html,22.4268,114.24198,,831938,842971
114.23018,22.41863,100,TwoqZXuPbd,Libraries,Yiu On Estate(Mobile Library 2),"Adjacent to Yiu Ping House, Yiu On Estate, Ma On Shan, N.T.",圖書館,耀安邨(流動圖書館二),新界馬鞍山耀安邨耀平樓側,SHA TIN,沙田,MOBILE LIBRARY,流動圖書館,N.A.,N.A.,N.A.,N.A.,N.A.,N.A.,N.A.,N.A.,http://www.hkpl.gov.hk/en/locations/sha-tin/mobile2/adjacent-to-yiu-ping-house.html,http://www.hkpl.gov.hk/tc/locations/sha-tin/mobile2/adjacent-to-yiu-ping-house.html,22.41863,114.23018,,831033,841756
114.23713,22.42439,101,k9pFdkcPk2,Libraries,Saddle Ridge Garden(Mobile Library 2),"Carpark adjacent to Saddle Ridge Garden Management Office, Ma On Shan, N.T.",圖書館,富寶花園(流動圖書館二),新界馬鞍山富寶花園管理處側之停車場,SHA TIN,沙田,MOBILE LIBRARY,流動圖書館,N.A.,N.A.,N.A.,N.A.,N.A.,N.A.,N.A.,N.A.,http://www.hkpl.gov.hk/en/locations/sha-tin/mobile2/carpark-adjacent-to-saddle.html,http://www.hkpl.gov.hk/tc/locations/sha-tin/mobile2/carpark-adjacent-to-saddle.html,22.42439,114.23713,,831671,842471
114.13853,22.4838,102,IdLzbRLW75,Libraries,Cheong Shing Court(Mobile Library 12),"Adjacent to Cheong Siu House, Cheong Shing Court, Fanling, N.T.",圖書館,昌盛苑(流動圖書館十二),新界粉嶺昌盛苑昌兆閣側,NORTH,北區,MOBILE LIBRARY,流動圖書館,N.A.,N.A.,N.A.,N.A.,N.A.,N.A.,N.A.,N.A.,http://www.hkpl.gov.hk/en/locations/north/mobile12/adjacent-to-cheong-siu-house.html,http://www.hkpl.gov.hk/tc/locations/north/mobile12/adjacent-to-cheong-siu-house.html,22.4838,114.13853,,838249,832322
114.028460000000109,22.45392,103,HbmseAocnf,Libraries,Wang Chau(Mobile Library 3),"Adjacent to Tung Tau Wai Rural Committee, Wang Lok Street, Wang Chau, N.T.",圖書館,橫洲(流動圖書館三),新界橫洲宏樂街東頭圍村公所側,YUEN LONG,元朗,MOBILE LIBRARY,流動圖書館,N.A.,N.A.,N.A.,N.A.,N.A.,N.A.,N.A.,N.A.,http://www.hkpl.gov.hk/en/locations/yuen-long/mobile3/adjacent-to-tung-tau-wai.html,http://www.hkpl.gov.hk/tc/locations/yuen-long/mobile3/adjacent-to-tung-tau-wai.html,22.45392,114.02846,,834948,820992
114.11264,22.36118,104,awz7k4xrqL,Libraries,Riviera Gardens(Mobile Library 1),"Adjacent to Hoi Sing Mansion, Riviera Gardens, Tsuen Wan, N.T.",圖書館,海濱花園(流動圖書館一),新界荃灣海濱花園海昇閣側,TSUEN WAN,荃灣,MOBILE LIBRARY,流動圖書館,N.A.,N.A.,N.A.,N.A.,N.A.,N.A.,N.A.,N.A.,http://www.hkpl.gov.hk/en/locations/tsuen-wan/mobile1/hoi-sing-mansion-riviera.html,http://www.hkpl.gov.hk/tc/locations/tsuen-wan/mobile1/hoi-sing-mansion-riviera.html,22.36118,114.11264,,824672,829652
114.13843,22.36454,105,ipId9jAocT,Libraries,Shek Lei Estate(Mobile Library 1),"Adjacent to Shek On House, Shek Lei(I) Estate, Kwai Chung, N.T.",圖書館,石籬(一)邨(流動圖書館一),新界葵涌石籬(一)邨石安樓側,KWAI TSING,葵青,MOBILE LIBRARY,流動圖書館,N.A.,N.A.,N.A.,N.A.,N.A.,N.A.,N.A.,N.A.,http://www.hkpl.gov.hk/en/locations/kwai-tsing/mobile1/adjacent-to-shek-on-house.html,http://www.hkpl.gov.hk/tc/locations/kwai-tsing/mobile1/adjacent-to-shek-on-house.html,22.36454,114.13843,,825043,832308
114.13026,22.35402,106,vYVa6cKZqb,Libraries,Lai Yiu Estate(Mobile Library 11),"Adjacent to Fu Yiu House, Lai Yiu Estate, Kwai Chung, N.T.",圖書館,麗瑤邨(流動圖書館十一),新界葵涌麗瑤邨富瑤樓側,KWAI TSING,葵青,MOBILE LIBRARY,流動圖書館,N.A.,N.A.,N.A.,N.A.,N.A.,N.A.,N.A.,N.A.,http://www.hkpl.gov.hk/en/locations/kwai-tsing/mobile11/adjacent-to-fu-yiu-house-lai.html,http://www.hkpl.gov.hk/tc/locations/kwai-tsing/mobile11/adjacent-to-fu-yiu-house-lai.html,22.35402,114.13026,,823878,831467
114.12286,22.35956,107,WJnQkuEtUx,Libraries,Kwai Shing (W) Estate(Mobile Library 11),"Kwai Shing West Estate, Kwai Shing Swimming Pool Carpark, Kwai Shing, N.T.",圖書館,葵盛西邨(流動圖書館十一),新界葵盛西邨葵盛泳池停車場,KWAI TSING,葵青,MOBILE LIBRARY,流動圖書館,N.A.,N.A.,N.A.,N.A.,N.A.,N.A.,N.A.,N.A.,http://www.hkpl.gov.hk/en/locations/kwai-tsing/mobile11/kwai-shing-west-estate-kwai.html,http://www.hkpl.gov.hk/tc/locations/kwai-tsing/mobile11/kwai-shing-west-estate-kwai.html,22.35956,114.12286,,824492,830705
114.12826,22.34627,108,M8mhNbJ6CX,Libraries,Cho Yiu Chuen(Mobile Library 11),"Adjacent to Cho Yiu Chuen Commercial Complex, Kwai Chung, N.T.",圖書館,祖堯邨(流動圖書館十一),新界葵涌祖堯邨商場側,KWAI TSING,葵青,MOBILE LIBRARY,流動圖書館,N.A.,N.A.,N.A.,N.A.,N.A.,N.A.,N.A.,N.A.,http://www.hkpl.gov.hk/en/locations/kwai-tsing/mobile11/chung-ling-sheh-carpark-cho.html,http://www.hkpl.gov.hk/tc/locations/kwai-tsing/mobile11/chung-ling-sheh-carpark-cho.html,22.34627,114.12826,,823020,831260
114.17043,22.3092,109,OOfZQgTAzo,Libraries,Yau Ma Tei Public Library,"G & M/F., 250 Shanghai Street, Yau Ma Tei, Kowloon",圖書館,油蔴地公共圖書館,九龍油麻地上海街250號地下及閣樓,YAU TSIM MONG,油尖旺,STATIC LIBRARY,固定圖書館,N.A.,N.A.,N.A.,N.A.,N.A.,N.A.,N.A.,N.A.,http://www.hkpl.gov.hk/en/locations/yau-tsim-mong/library/yau-ma-tei.html,http://www.hkpl.gov.hk/tc/locations/yau-tsim-mong/library/yau-ma-tei.html,22.3092,114.17043,3560418914T20050430,818914,835604
114.21502,22.32863,110,LUIcHf7jeJ,Libraries,Choi Ying Estate(Mobile Library 8),"Adjacent to Ying Fu House, Choi Ying Estate, Kowloon Bay, Kowloon",圖書館,彩盈邨(流動圖書館八),九龍九龍灣彩盈邨盈富樓側,KWUN TONG,觀塘,MOBILE LIBRARY,流動圖書館,N.A.,N.A.,N.A.,N.A.,N.A.,N.A.,N.A.,N.A.,http://www.hkpl.gov.hk/en/locations/kwun-tong/mobile8/adjacent-to-ying-fu-house.html,http://www.hkpl.gov.hk/tc/locations/kwun-tong/mobile8/adjacent-to-ying-fu-house.html,22.32863,114.21502,,821067,840198
114.22585,22.4141,111,uuoHvpr7vP,Libraries,Yan On Estate(Mobile Library 5),"Adjacent to Yan Yuet House, Yan On Estate, Ma On Shan, N.T.",圖書館,欣安邨(流動圖書館五),新界馬鞍山欣安邨欣悅樓側,SHA TIN,沙田,MOBILE LIBRARY,流動圖書館,N.A.,N.A.,N.A.,N.A.,N.A.,N.A.,N.A.,N.A.,http://www.hkpl.gov.hk/en/locations/sha-tin/mobile5/adjacent-to-yan-yuet-house.html,http://www.hkpl.gov.hk/tc/locations/sha-tin/mobile5/adjacent-to-yan-yuet-house.html,22.4141,114.22585,,830532,841311
113.96843,22.4057,112,9StM05b23c,Libraries,Tsing Tin Playground(Mobile Library 10),"Tsing Tin Playground, Leung Wan Street, Tuen Mun, N.T.",圖書館,青田遊樂場(流動圖書館十),新界屯門良運街青田遊樂場,TUEN MUN,屯門,MOBILE LIBRARY,流動圖書館,N.A.,N.A.,N.A.,N.A.,N.A.,N.A.,N.A.,N.A.,http://www.hkpl.gov.hk/en/locations/tuen-mun/mobile10/tsing-tin-playground-leung.html,http://www.hkpl.gov.hk/tc/locations/tuen-mun/mobile10/tsing-tin-playground-leung.html,22.4057,113.96843,,829615,814805
114.14655,22.24349,113,sxmntvHCaD,Libraries,South Horizons(Mobile Library 9),"Lay-by area of the Marina Square, South Horizons, Ap Lei Chau, Hong Kong",圖書館,海怡半島(流動圖書館九),香港鴨脷洲海怡半島海怡廣場避車處,SOUTHERN,南區,MOBILE LIBRARY,流動圖書館,N.A.,N.A.,N.A.,N.A.,N.A.,N.A.,N.A.,N.A.,http://www.hkpl.gov.hk/en/locations/southern/mobile9/lay-by-area-of-the-marina.html,http://www.hkpl.gov.hk/tc/locations/southern/mobile9/lay-by-area-of-the-marina.html,22.24349,114.14655,,811638,833142
114.236310000000131,22.29991,114,1k7MzqssdR,Libraries,Yau Lai Estate(Mobile Library 8),"Adjacent to Fung Lai House, Yau Lai Estate, Yau Tong, Kowloon",圖書館,油麗邨(流動圖書館八),九龍油塘油麗邨豐麗樓側,KWUN TONG,觀塘,MOBILE LIBRARY,流動圖書館,N.A.,N.A.,N.A.,N.A.,N.A.,N.A.,N.A.,N.A.,http://www.hkpl.gov.hk/en/locations/kwun-tong/mobile8/adjacent-to-fung-lai-house.html,http://www.hkpl.gov.hk/tc/locations/kwun-tong/mobile8/adjacent-to-fung-lai-house.html,22.29991,114.23631,,817887,842392
114.004820000000109,22.46378,115,a3yrKBPVc8,Libraries,Tin Ching Estate(Mobile Library 3),"Adjacent to Ching Hei House, Tin Ching Estate, Tin Shui Wai, N.T.",圖書館,天晴邨(流動圖書館三),新界天水圍天晴邨晴喜樓側,YUEN LONG,元朗,MOBILE LIBRARY,流動圖書館,N.A.,N.A.,N.A.,N.A.,N.A.,N.A.,N.A.,N.A.,http://www.hkpl.gov.hk/en/locations/yuen-long/mobile3/adjacent-to-ching-hei-hse-tin-ching-est-tin-shui-wai.html,http://www.hkpl.gov.hk/tc/locations/yuen-long/mobile3/adjacent-to-ching-hei-hse-tin-ching-est-tin-shui-wai.html,22.46378,114.00482,,836042,818560
114.15359,22.33587,116,XnBA40jgO5,Libraries,Fortune Estate(Mobile Library 2),"Adjacent to Fook Yat House, Fortune Estate, Cheung Sha Wan, Kowloon",圖書館,幸福邨(流動圖書館二),九龍長沙灣幸福邨福日樓側,SHAM SHUI PO,深水埗,MOBILE LIBRARY,流動圖書館,N.A.,N.A.,N.A.,N.A.,N.A.,N.A.,N.A.,N.A.,http://www.hkpl.gov.hk/en/locations/sham-shui-po/mobile2/adjacent-to-fook-yat-house.html,http://www.hkpl.gov.hk/tc/locations/sham-shui-po/mobile2/adjacent-to-fook-yat-house.html,22.33587,114.15359,,821868,833869
113.93448,22.28082,117,x5W3rIQ15F,Libraries,Yat Tung Estate(Mobile Library 4),"Adjacent to Ying Yat House at Yat Tung Estate, Tung Chung, N.T.",圖書館,東涌逸東邨(流動圖書館四),新界東涌逸東邨迎逸樓側,ISLANDS,離島,MOBILE LIBRARY,流動圖書館,N.A.,N.A.,N.A.,N.A.,N.A.,N.A.,N.A.,N.A.,http://www.hkpl.gov.hk/en/locations/islands/mobile4/adjacent-to-ying-yat-house.html,http://www.hkpl.gov.hk/tc/locations/islands/mobile4/adjacent-to-ying-yat-house.html,22.28082,113.93448,,815792,811287
114.20336,22.33197,118,6FXvvaRiXG,Libraries,Kai Ching Estate(Mobile Library 1),"Adjacent to Hong Ching House, Kai Ching Estate, Kowloon City, Kowloon",圖書館,啟晴邨(流動圖書館一),九龍九龍城啟晴邨康晴樓側,KOWLOON CITY,九龍城,MOBILE LIBRARY,流動圖書館,N.A.,N.A.,N.A.,N.A.,N.A.,N.A.,N.A.,N.A.,http://www.hkpl.gov.hk/en/locations/kowloon-city/mobile1/adjacent-to-hong-ching-house.html,http://www.hkpl.gov.hk/tc/locations/kowloon-city/mobile1/adjacent-to-hong-ching-house.html,22.33197,114.20336,,821436,838997
114.10381,22.36051,119,GEzP2v6oLZ,Libraries,Easeful Court(Mobile Library 11),"Loading Bay adjacent to Tower 1, Easeful Court, Tsing Yi, N.T.",圖書館,青逸軒(流動圖書館十一),新界青衣青逸軒第一座側上落客貨區,KWAI TSING,葵青,MOBILE LIBRARY,流動圖書館,N.A.,N.A.,N.A.,N.A.,N.A.,N.A.,N.A.,N.A.,http://www.hkpl.gov.hk/en/locations/kwai-tsing/mobile11/loading-bay-adjacent-to-tower.html,http://www.hkpl.gov.hk/tc/locations/kwai-tsing/mobile11/loading-bay-adjacent-to-tower.html,22.36051,114.10381,,824598,828742
113.99358,22.37159,120,JdT6lSFscS,Libraries,Gold Coast(Mobile Library 10),"Adjacent to Gold Coast Piazza, Castle Peak Bay, Tuen Mun, N.T.",圖書館,黃金海岸(流動圖書館十),新界屯門青山灣黃金海岸商場側,TUEN MUN,屯門,MOBILE LIBRARY,流動圖書館,N.A.,N.A.,N.A.,N.A.,N.A.,N.A.,N.A.,N.A.,http://www.hkpl.gov.hk/en/locations/tuen-mun/mobile10/adjacent-to-gold-coast-piazza.html,http://www.hkpl.gov.hk/tc/locations/tuen-mun/mobile10/adjacent-to-gold-coast-piazza.html,22.37159,113.99358,,825835,817390
113.96603,22.40934,121,A747GWGUuz,Libraries,Po Tin Estate(Mobile Library 11),"Adjacent to Block 4, Po Tin Estate, Tuen Mun, N.T.",圖書館,寶田邨(流動圖書館十一),新界屯門寶田邨第四座側,TUEN MUN,屯門,MOBILE LIBRARY,流動圖書館,N.A.,N.A.,N.A.,N.A.,N.A.,N.A.,N.A.,N.A.,http://www.hkpl.gov.hk/en/locations/tuen-mun/mobile11/adjacent-to-block-4-po-tin-estate.html,http://www.hkpl.gov.hk/tc/locations/tuen-mun/mobile11/adjacent-to-block-4-po-tin-estate.html,22.40934,113.96603,,830019,814559
114.12565,22.36267,122,Hxc5En5FJx,Libraries,Kwai Luen Estate(Mobile Library 12),"Adjacent to Luen Yan House, Kwai Luen Estate, Kwai Chung, N.T.",圖書館,葵聯邨(流動圖書館十二),新界葵涌葵聯邨聯欣樓側,KWAI TSING,葵青,MOBILE LIBRARY,流動圖書館,N.A.,N.A.,N.A.,N.A.,N.A.,N.A.,N.A.,N.A.,http://www.hkpl.gov.hk/en/locations/kwai-tsing/mobile12/adjacent-to-luen-yan-house.html,http://www.hkpl.gov.hk/tc/locations/kwai-tsing/mobile12/adjacent-to-luen-yan-house.html,22.36267,114.12565,,824836,830992
114.16713,22.33317,123,rZjdIuPAN6,Libraries,Shek Kip Mei Public Library,"7/F,Shek Kip Mei Estate Ancillary Facilities Block,100 Woh Chai St, Shek Kip Mei",圖書館,石硤尾公共圖書館,石硤尾窩仔街100號石硤尾邨服務設施大樓七樓,SHAM SHUI PO,深水埗,STATIC LIBRARY,固定圖書館,N.A.,N.A.,N.A.,N.A.,N.A.,N.A.,N.A.,N.A.,http://www.hkpl.gov.hk/en/locations/sham-shui-po/library/shek-kip-mei.html,http://www.hkpl.gov.hk/tc/locations/sham-shui-po/library/shek-kip-mei.html,22.33317,114.16713,3526421568T20121220,821569,835264
114.00474,22.44738,124,JSk6OJQBEY,Libraries,Ping Shan Tin Shui Wai Public Library,"Ping Shan Tin Shui Wai Cultural and Leisure Building, 1 Tsui Sing Road, Tin Shui Wai",圖書館,屏山天水圍公共圖書館,天水圍聚星路一號屏山天水圍文化康樂大樓,YUEN LONG,元朗,STATIC LIBRARY,固定圖書館,N.A.,N.A.,N.A.,N.A.,N.A.,N.A.,N.A.,N.A.,http://www.hkpl.gov.hk/en/locations/yuen-long/library/ping-shan-tin-shui-wai.html,http://www.hkpl.gov.hk/tc/locations/yuen-long/library/ping-shan-tin-shui-wai.html,22.44738,114.00474,1854934226T20090602,834226,818549
114.2374,22.31011,125,s75Rp4Zexe,Libraries,Lam Tin Public Library,"5-6/F, Lam Tin Complex, 1 Hing Tin Street, Lam Tin",圖書館,藍田公共圖書館,藍田慶田街一號藍田綜合大樓五至六樓,KWUN TONG,觀塘,STATIC LIBRARY,固定圖書館,N.A.,N.A.,N.A.,N.A.,N.A.,N.A.,N.A.,N.A.,http://www.hkpl.gov.hk/en/locations/kwun-tong/library/lam-tin.html ,http://www.hkpl.gov.hk/tc/locations/kwun-tong/library/lam-tin.html ,22.31011,114.2374,4250419016T20120608,819016,842504
114.16658,22.44612,126,Da9zg1AstM,Libraries,Tai Po Public Library,"5/F., Tai Po Complex, 8 Heung Sze Wui Street, Tai Po, N.T.",圖書館,大埔公共圖書館,新界大埔鄉事會街8號大埔綜合大樓五樓,TAI PO,大埔,STATIC LIBRARY,固定圖書館,N.A.,N.A.,N.A.,N.A.,N.A.,N.A.,N.A.,N.A.,http://www.hkpl.gov.hk/en/locations/tai-po/library/tai-po.html,http://www.hkpl.gov.hk/tc/locations/tai-po/library/tai-po.html,22.44612,114.16658,3520834077T20050430,834077,835208
114.2001,22.3488,127,bGvoPzxI53,Libraries,Tsz Wan Shan Public Library,"Shop 702, Tsz Wan Shan Shopping Centre, 23 Yuk Wah Street, Tsz Wan Shan, Kowloon",圖書館,慈雲山公共圖書館,九龍慈雲山毓華街23號慈雲山中心702號,WONG TAI SIN,黃大仙,STATIC LIBRARY,固定圖書館,N.A.,N.A.,N.A.,N.A.,N.A.,N.A.,N.A.,N.A.,http://www.hkpl.gov.hk/en/locations/wong-tai-sin/library/tsz-wan-shan.html,http://www.hkpl.gov.hk/tc/locations/wong-tai-sin/library/tsz-wan-shan.html,22.3488,114.2001,,823300,838660
114.21221,22.21916,128,J5g3rbBWbh,Libraries,Stanley Public Library,"Upper Ground Floor, Stanley Municipal Services Building, 6 Stanley Market Road, Stanley, Hong Kong",圖書館,赤柱公共圖書館,香港赤柱赤柱市場道6號赤柱市政大廈地面上層,SOUTHERN,南區,STATIC LIBRARY,固定圖書館,N.A.,N.A.,N.A.,N.A.,N.A.,N.A.,N.A.,N.A.,http://www.hkpl.gov.hk/en/locations/southern/library/stanley.html,http://www.hkpl.gov.hk/tc/locations/southern/library/stanley.html,22.21916,114.21221,3991108944T20060223,808944,839911
114.21179,22.28369,129,Qj9XwxKmYv,Libraries,Quarry Bay Public Library,"4-5/F., Quarry Bay Municipal Services Building, 38 Quarry Bay Street, Quarry Bay, Hong Kong",圖書館,鰂魚涌公共圖書館,香港鰂魚涌街38號鰂魚涌市政大廈四至五樓,EASTERN,東區,STATIC LIBRARY,固定圖書館,N.A.,N.A.,N.A.,N.A.,N.A.,N.A.,N.A.,N.A.,http://www.hkpl.gov.hk/en/locations/eastern/library/quarry-bay.html,http://www.hkpl.gov.hk/tc/locations/eastern/library/quarry-bay.html,22.28369,114.21179,3986616090T20060104,816090,839866
113.94426,22.29062,130,KpwvVfw1nl,Libraries,Tung Chung Public Library,"G/F & 1/F, Tung Chung Municipal Services Building, 39 Man Tung Road, Tung Chung, New Territories",圖書館,東涌公共圖書館,新界大嶼山東涌文東路39號東涌市政大樓地下及1樓,ISLANDS,離島,STATIC LIBRARY,固定圖書館,N.A.,N.A.,N.A.,N.A.,N.A.,N.A.,N.A.,N.A.,http://www.hkpl.gov.hk/en/locations/islands/library/tung-chung.html,http://www.hkpl.gov.hk/tc/locations/islands/library/tung-chung.html,22.29062,113.94426,1229716876T20090326,816876,812297
114.15542,22.24448,131,Dg6vuNUE4h,Libraries,Ap Lei Chau Public Library,"5/F., Ap Lei Chau Municipal Services Building, 8 Hung Shing Street, Ap Lei Chau, Hong Kong",圖書館,鴨脷洲公共圖書館,香港鴨脷洲洪聖街8號鴨脷洲市政大廈五樓,SOUTHERN,南區,STATIC LIBRARY,固定圖書館,N.A.,N.A.,N.A.,N.A.,N.A.,N.A.,N.A.,N.A.,http://www.hkpl.gov.hk/en/locations/southern/library/ap-lei-chau.html,http://www.hkpl.gov.hk/tc/locations/southern/library/ap-lei-chau.html,22.24448,114.15542,3405611748T20050430,811748,834056
113.99867,22.46842,132,pwe6hWB9zZ,Libraries,Tin Shui Wai North Public Library,"Shop 313, Tin Chak Shopping Centre, Tin Chak Estate, Tin Shui Wai, N.T.",圖書館,天水圍北公共圖書館,新界天水圍天澤邨天澤商場313號舖位,YUEN LONG,元朗,STATIC LIBRARY,固定圖書館,N.A.,N.A.,N.A.,N.A.,N.A.,N.A.,N.A.,N.A.,http://www.hkpl.gov.hk/en/locations/yuen-long/library/tin-shui-wai-north.html,http://www.hkpl.gov.hk/tc/locations/yuen-long/library/tin-shui-wai-north.html,22.46842,113.99867,1792736557T20050430,836557,817927
114.12864,22.28194,133,g8FSTn7tJA,Libraries,Smithfield Public Library,"3/F., Smithfield Municipal Services Building, 12K Smithfield, Kennedy Town, Hong Kong",圖書館,士美非路公共圖書館,香港堅尼地城士美菲路12K號士美非路市政大廈三樓,CENTRAL AND WESTERN,中西區,STATIC LIBRARY,固定圖書館,N.A.,N.A.,N.A.,N.A.,N.A.,N.A.,N.A.,N.A.,http://www.hkpl.gov.hk/en/locations/central-and-western/library/smithfield.html,http://www.hkpl.gov.hk/tc/locations/central-and-western/library/smithfield.html,22.28194,114.12864,3129715897T20050430,815897,831297
114.22417,22.54624,134,bkdGmUyc79,Libraries,Sha Tau Kok Public Library,"Shop 1, G/F, Block 20, Sha Tau Kok Chuen, Sha Tau Kok, N.T.",圖書館,沙頭角公共圖書館,新界沙頭角邨第20座地下1號舖,NORTH,北區,STATIC LIBRARY,固定圖書館,N.A.,N.A.,N.A.,N.A.,N.A.,N.A.,N.A.,N.A.,http://www.hkpl.gov.hk/en/locations/north/library/sha-tau-kok.html,http://www.hkpl.gov.hk/tc/locations/north/library/sha-tau-kok.html,22.54624,114.22417,,845164,841133
114.27233,22.38223,135,WAe9haU2XL,Libraries,Sai Kung Public Library,"5/F, Sai Kung Government Offices, 34 Chan Man Street, Sai Kung, N.T.",圖書館,西貢公共圖書館,新界西貢親民街34號西貢政府合署五樓,SAI KUNG,西貢,STATIC LIBRARY,固定圖書館,N.A.,N.A.,N.A.,N.A.,N.A.,N.A.,N.A.,N.A.,http://www.hkpl.gov.hk/en/locations/sai-kung/library/sai-kung.html,http://www.hkpl.gov.hk/tc/locations/sai-kung/library/sai-kung.html,22.38223,114.27233,4609827005T20050430,827005,846098
114.21615,22.32106,136,KjRVtQudcy,Libraries,Ngau Tau Kok Public Library,"2-3/F., Ngau Tau Kok Municipal Services Building, 183 Ngau Tau Kok Road, Kowloon",圖書館,牛頭角公共圖書館,九龍牛頭角道183號牛頭角市政大廈二至三樓,KWUN TONG,觀塘,STATIC LIBRARY,固定圖書館,N.A.,N.A.,N.A.,N.A.,N.A.,N.A.,N.A.,N.A.,http://www.hkpl.gov.hk/en/locations/kwun-tong/library/ngau-tau-kok.html,http://www.hkpl.gov.hk/tc/locations/kwun-tong/library/ngau-tau-kok.html,22.32106,114.21615,4031520228T20050430,820228,840315
114.2083,22.34273,137,rkUA0xYFAR,Libraries,Fu Shan Public Library,"Units 1-4, LG 1, Fu Yan House, Fu Shan Estate, Po Kong Village Road, Kowloon",圖書館,富山公共圖書館,九龍蒲崗村道富山邨富仁樓地庫一層1-4號單位,WONG TAI SIN,黃大仙,STATIC LIBRARY,固定圖書館,N.A.,N.A.,N.A.,N.A.,N.A.,N.A.,N.A.,N.A.,http://www.hkpl.gov.hk/en/locations/wong-tai-sin/library/fu-shan.html,http://www.hkpl.gov.hk/tc/locations/wong-tai-sin/library/fu-shan.html,22.34273,114.2083,3950522628T20050430,822628,839505
114.22559,22.27685,138,uLzmIbLyHB,Libraries,Yiu Tung Public Library,"G/F., Yiu Cheong House, Yiu Tung Estate, Shau Kei Wan, Hong Kong",圖書館,耀東公共圖書館,香港筲箕灣耀東邨耀昌樓地下,EASTERN,東區,STATIC LIBRARY,固定圖書館,N.A.,N.A.,N.A.,N.A.,N.A.,N.A.,N.A.,N.A.,http://www.hkpl.gov.hk/en/locations/eastern/library/yiu-tung.html,http://www.hkpl.gov.hk/tc/locations/eastern/library/yiu-tung.html,22.27685,114.22559,4128915333T20050430,815333,841289
114.20546,22.29135,139,FEjaWXLNLY,Libraries,North Point Public Library,"G/F., North Point Market Building, Pak Fuk Road, North Point, Hong Kong",圖書館,北角公共圖書館,香港北角百福道北角街市大廈地下,EASTERN,東區,STATIC LIBRARY,固定圖書館,N.A.,N.A.,N.A.,N.A.,N.A.,N.A.,N.A.,N.A.,http://www.hkpl.gov.hk/en/locations/eastern/library/north-point.html,http://www.hkpl.gov.hk/tc/locations/eastern/library/north-point.html,22.29135,114.20546,3921416938T20050430,816938,839214
114.19373,22.28955,140,u7m3vD8MQX,Libraries,Electric Road Public Library,"2/F., Electric Road Municipal Services Buliding, 229 Electric Road, North Point, Hong Kong",圖書館,電氣道公共圖書館,香港電氣道229號電氣道市政大廈二樓,EASTERN,東區,STATIC LIBRARY,固定圖書館,N.A.,N.A.,N.A.,N.A.,N.A.,N.A.,N.A.,N.A.,http://www.hkpl.gov.hk/en/locations/eastern/library/electric-road.html,http://www.hkpl.gov.hk/tc/locations/eastern/library/electric-road.html,22.28955,114.19373,3800516739T20050430,816739,838005
114.16082,22.28215,141,lr7EOeSbEL,Libraries,City Hall Public Library,"2-6/F. & 8-11/F., City Hall High Block, Central, Hong Kong",圖書館,大會堂公共圖書館,香港中環大會堂高座二至六樓及八至十一樓,CENTRAL AND WESTERN,中西區,STATIC LIBRARY,固定圖書館,N.A.,N.A.,N.A.,N.A.,N.A.,N.A.,N.A.,N.A.,http://www.hkpl.gov.hk/en/locations/central-and-western/library/city-hall.html,http://www.hkpl.gov.hk/tc/locations/central-and-western/library/city-hall.html,22.28215,114.16082,3461315919T20050430,815919,834613
114.249550000000113,22.26357,142,SjeozTOMX3,Libraries,Siu Sai Wan Public Library,"G/F, Siu Sai Wan Complex, Siu Sai Wan Road, Siu Sai Wan",圖書館,小西灣公共圖書館,小西灣小西灣道小西灣綜合大樓地下,EASTERN,東區,STATIC LIBRARY,固定圖書館,N.A.,N.A.,N.A.,N.A.,N.A.,N.A.,N.A.,N.A.,http://www.hkpl.gov.hk/en/locations/eastern/library/siu-sai-wan.html,http://www.hkpl.gov.hk/tc/locations/eastern/library/siu-sai-wan.html,22.26357,114.24955,4375913864T20101229,813864,843759
113.96297,22.37646,143,RxUTRiwPmr,Libraries,Butterfly Estate Public Library,"Unit Nos. 123-130, Ground Floor, Tip Chui House of Butterfly Estate, Tuen Mun, N.T.",圖書館,蝴蝶邨公共圖書館,新界屯門蝴蝶邨蝶聚樓地下 123 –130 號,TUEN MUN,屯門,STATIC LIBRARY,固定圖書館,N.A.,N.A.,N.A.,N.A.,N.A.,N.A.,N.A.,N.A.,http://www.hkpl.gov.hk/en/locations/tuen-mun/library/butterfly-estate.html,http://www.hkpl.gov.hk/tc/locations/tuen-mun/library/butterfly-estate.html,22.37646,113.96297,,826378,814239
114.23998,22.26333,144,xIkVKKxM0P,Libraries,Chai Wan Public Library,"4-5/F., Chai Wan Municipal Services Building. 338 Chai Wan Road, Chai Wan, Hong Kong",圖書館,柴灣公共圖書館,香港柴灣柴灣道338號柴灣市政大廈四樓至五樓,EASTERN,東區,STATIC LIBRARY,固定圖書館,N.A.,N.A.,N.A.,N.A.,N.A.,N.A.,N.A.,N.A.,http://www.hkpl.gov.hk/en/locations/eastern/library/chai-wan.html ,http://www.hkpl.gov.hk/tc/locations/eastern/library/chai-wan.html ,22.26333,114.23998,4277213836T20050430,813836,842772
114.13615,22.25062,145,fd7Xp7scY4,Libraries,Pok Fu Lam Public Library,"Units No. 611-619, Wah Chun House, Wah Fu Estate, Pok Fu Lam, Hong Kong",圖書館,薄扶林公共圖書館,香港薄扶林華富邨華珍樓611-619室,SOUTHERN,南區,STATIC LIBRARY,固定圖書館,N.A.,N.A.,N.A.,N.A.,N.A.,N.A.,N.A.,N.A.,http://www.hkpl.gov.hk/en/locations/southern/library/pok-fu-lam.html,http://www.hkpl.gov.hk/tc/locations/southern/library/pok-fu-lam.html,22.25062,114.13615,3207012428T20050430,812428,832070
114.189660000000117,22.2799,146,VrXqwiUBWZ,Libraries,Hong Kong Central Library,"66 Causeway Road, Causeway Bay, Hong Kong",圖書館,香港中央圖書館,香港銅鑼灣高士威道66號,WAN CHAI,灣仔,STATIC LIBRARY,固定圖書館,N.A.,N.A.,N.A.,N.A.,N.A.,N.A.,N.A.,N.A.,http://www.hkpl.gov.hk/hkcl/,http://www.hkpl.gov.hk/hkcl/,22.2799,114.18966,3758615670T20050430,815670,837586
114.17542,22.27808,147,mgZ9oKcBdU,Libraries,Lockhart Road Public Library,"3-5/F., Lockhart Road Municipal Services Building, 225 Hennessy Road, Wanchai, Hong Kong",圖書館,駱克道公共圖書館,香港灣仔軒尼詩道225號駱克道市政大廈三至五樓,WAN CHAI,灣仔,STATIC LIBRARY,固定圖書館,N.A.,N.A.,N.A.,N.A.,N.A.,N.A.,N.A.,N.A.,http://www.hkpl.gov.hk/en/locations/wan-chai/library/lockhart-road.html ,http://www.hkpl.gov.hk/tc/locations/wan-chai/library/lockhart-road.html ,22.27808,114.17542,3611815468T20050430,815468,836118
114.185750000000112,22.26895,148,O0ZstsdSrJ,Libraries,Wong Nai Chung Public Library,"3/F., Wong Nai Chung Municipal Services Building, 2 Yuk Sau Street, Happy Valley, Hong Kong",圖書館,黃泥涌公共圖書館,香港跑馬地毓秀街2號黃泥涌市政大廈三樓,WAN CHAI,灣仔,STATIC LIBRARY,固定圖書館,N.A.,N.A.,N.A.,N.A.,N.A.,N.A.,N.A.,N.A.,http://www.hkpl.gov.hk/en/locations/wan-chai/library/wong-nai-chung.html,http://www.hkpl.gov.hk/tc/locations/wan-chai/library/wong-nai-chung.html,22.26895,114.18575,3718314457T20050430,814457,837183
114.154360000000111,22.24956,149,rmlUBgBDYj,Libraries,Aberdeen Public Library,"3/F., Aberdeen Municipal Services Building, 203 Aberdeen Main Road, Aberdeen, Hong Kong",圖書館,香港仔公共圖書館,香港香港仔大道203號香港仔市政大廈三樓,SOUTHERN,南區,STATIC LIBRARY,固定圖書館,N.A.,N.A.,N.A.,N.A.,N.A.,N.A.,N.A.,N.A.,http://www.hkpl.gov.hk/en/locations/southern/library/aberdeen.html ,http://www.hkpl.gov.hk/tc/locations/southern/library/aberdeen.html ,22.24956,114.15436,3394712311T20050430,812311,833947
114.13605,22.28572,150,YzNqCAH1Zx,Libraries,Shek Tong Tsui Public Library,"3-4/F., Shek Tong Tsui Municipal Services Building, 470 Queen's Road West, Hong Kong",圖書館,石塘咀公共圖書館,香港皇后大道西470號石塘咀市政大廈三至四樓,CENTRAL AND WESTERN,中西區,STATIC LIBRARY,固定圖書館,N.A.,N.A.,N.A.,N.A.,N.A.,N.A.,N.A.,N.A.,http://www.hkpl.gov.hk/en/locations/central-and-western/library/shek-tong-tsui.html,http://www.hkpl.gov.hk/tc/locations/central-and-western/library/shek-tong-tsui.html,22.28572,114.13605,3206116315T20050430,816315,832061
114.18736,22.30727,151,CAASdFS3Bf,Libraries,Hung Hom Public Library,"6/F., Hung Hom Municipal Services Building, 11 Ma Tau Wai Road, Hunghom, Kowloon",圖書館,紅磡公共圖書館,九龍紅磡馬頭圍道11號紅磡市政大廈六樓,KOWLOON CITY,九龍城,STATIC LIBRARY,固定圖書館,N.A.,N.A.,N.A.,N.A.,N.A.,N.A.,N.A.,N.A.,http://www.hkpl.gov.hk/en/locations/kowloon-city/library/hung-hom.html,http://www.hkpl.gov.hk/tc/locations/kowloon-city/library/hung-hom.html,22.30727,114.18736,3734818701T20050430,818701,837348
114.17606,22.31851,152,TchAEllPOT,Libraries,Kowloon Public Library,"5 Pui Ching Road, Homantin, Kowloon",圖書館,九龍公共圖書館,九龍何文田培正道5號,KOWLOON CITY,九龍城,STATIC LIBRARY,固定圖書館,N.A.,N.A.,N.A.,N.A.,N.A.,N.A.,N.A.,N.A.,http://www.hkpl.gov.hk/en/locations/kowloon-city/library/kowloon.html ,http://www.hkpl.gov.hk/tc/locations/kowloon-city/library/kowloon.html ,22.31851,114.17606,3618419946T20120327,819946,836184
114.18889,22.32964,153,99OWtgmHRR,Libraries,Kowloon City Public Library,"3/F., Kowloon City Municipal Services Buliding, 100 Nga Tsin Wai Road, Kowloon City, Kowloon",圖書館,九龍城公共圖書館,九龍城衙前圍道100號九龍城市政大廈三樓,KOWLOON CITY,九龍城,STATIC LIBRARY,固定圖書館,N.A.,N.A.,N.A.,N.A.,N.A.,N.A.,N.A.,N.A.,http://www.hkpl.gov.hk/en/locations/kowloon-city/library/kowloon-city.html,http://www.hkpl.gov.hk/tc/locations/kowloon-city/library/kowloon-city.html,22.32964,114.18889,3750621178T20050430,821178,837506
114.18799,22.31714,154,aofuxqLmMs,Libraries,To Kwa Wan Public Library,"5-6/F., To Kwa Wan Market & Government Offices, 165 Ma Tau Wai Road, Kowloon",圖書館,土瓜灣公共圖書館,九龍馬頭圍道165號土瓜灣政府合署五至六樓,KOWLOON CITY,九龍城,STATIC LIBRARY,固定圖書館,N.A.,N.A.,N.A.,N.A.,N.A.,N.A.,N.A.,N.A.,http://www.hkpl.gov.hk/en/locations/kowloon-city/library/to-kwa-wan.html,http://www.hkpl.gov.hk/tc/locations/kowloon-city/library/to-kwa-wan.html,22.31714,114.18799,3741319794T20120921,819794,837413
114.23868,22.29206,155,HVOJygFiY0,Libraries,Lei Yue Mun Public Library,"1/F., Lei Yue Mun Municipal Services Building, 6 Lei Yue Mun Path, Kwun Tong, Kowloon",圖書館,鯉魚門公共圖書館,九龍觀塘鯉魚門徑6號鯉魚門市政大廈一樓,KWUN TONG,觀塘,STATIC LIBRARY,固定圖書館,N.A.,N.A.,N.A.,N.A.,N.A.,N.A.,N.A.,N.A.,http://www.hkpl.gov.hk/en/locations/kwun-tong/library/lei-yue-mun.html,http://www.hkpl.gov.hk/tc/locations/kwun-tong/library/lei-yue-mun.html,22.29206,114.23868,4263717018T20050430,817018,842637
114.233660000000114,22.3157,156,rMQ0PGXl5G,Libraries,Sau Mau Ping Public Library,"Units No. 104-109, G/F., Sau Ming House, Sau Mau Ping Estate, Kwun Tong, Kowloon",圖書館,秀茂坪公共圖書館,九龍觀塘秀茂坪邨秀明樓104-109號,KWUN TONG,觀塘,STATIC LIBRARY,固定圖書館,N.A.,N.A.,N.A.,N.A.,N.A.,N.A.,N.A.,N.A.,http://www.hkpl.gov.hk/en/locations/kwun-tong/library/sau-mau-ping.html,http://www.hkpl.gov.hk/tc/locations/kwun-tong/library/sau-mau-ping.html,22.3157,114.23366,4211919635T20050430,819635,842119
114.22428,22.31566,157,jTvrk1IV6V,Libraries,Shui Wo Street Public Library,"5-6/F., Shui Wo Street Municipal Services Buliding, 9 Shui Wo Street, Kwun Tong, Kowloon",圖書館,瑞和街公共圖書館,九龍觀塘瑞和街9號瑞和街市政大樓五至六樓,KWUN TONG,觀塘,STATIC LIBRARY,固定圖書館,N.A.,N.A.,N.A.,N.A.,N.A.,N.A.,N.A.,N.A.,http://www.hkpl.gov.hk/en/locations/kwun-tong/library/shui-wo-street.html,http://www.hkpl.gov.hk/tc/locations/kwun-tong/library/shui-wo-street.html,22.31566,114.22428,4115219631T20050430,819631,841152
114.22544,22.32969,158,XaUvnWzKrb,Libraries,Shun Lee Estate Public Library,"3/F, Shun Lee Tsuen Sports Centre, Shun Lee Tsuen Road, Kwun Tong, Kowloon",圖書館,順利邨公共圖書館,九龍觀塘順利邨道順利邨體育館三樓,KWUN TONG,觀塘,STATIC LIBRARY,固定圖書館,N.A.,N.A.,N.A.,N.A.,N.A.,N.A.,N.A.,N.A.,http://www.hkpl.gov.hk/en/locations/kwun-tong/library/shun-lee-estate.html,http://www.hkpl.gov.hk/tc/locations/kwun-tong/library/shun-lee-estate.html,22.32969,114.22544,4127121184T20050430,821184,841271
114.19281,22.34045,159,pWAMEZ6zoa,Libraries,Lung Hing Public Library,"North Wing, G/F., Lung Hing House, Lower Wong Tai Sin (II) Estate, Kowloon",圖書館,龍興公共圖書館,九龍黃大仙下邨(二區)龍興樓地下北翼,WONG TAI SIN,黃大仙,STATIC LIBRARY,固定圖書館,N.A.,N.A.,N.A.,N.A.,N.A.,N.A.,N.A.,N.A.,http://www.hkpl.gov.hk/en/locations/wong-tai-sin/library/lung-hing.html,http://www.hkpl.gov.hk/tc/locations/wong-tai-sin/library/lung-hing.html,22.34045,114.19281,3791022375T20050430,822375,837910
114.20889,22.3345,160,cS2b219g6k,Libraries,Ngau Chi Wan Public Library,"5-6/F., Ngau Chi Wan Municipal Services Building, 11 Clear Water Bay Road, Kowloon",圖書館,牛池灣公共圖書館,九龍清水灣道11號牛池灣市政大廈五至六樓,WONG TAI SIN,黃大仙,STATIC LIBRARY,固定圖書館,N.A.,N.A.,N.A.,N.A.,N.A.,N.A.,N.A.,N.A.,http://www.hkpl.gov.hk/en/locations/wong-tai-sin/library/ngau-chi-wan.html,http://www.hkpl.gov.hk/tc/locations/wong-tai-sin/library/ngau-chi-wan.html,22.3345,114.20889,3956621716T20050715,821716,839566
114.19596,22.33497,161,TwuxbOAasB,Libraries,San Po Kong Public Library,"3/F., San Po Kong Plaza, 33 Shung Ling Street, San Po Kong, Kowloon",圖書館,新蒲崗公共圖書館,九龍新蒲崗崇齡街33號新蒲崗廣場三樓,WONG TAI SIN,黃大仙,STATIC LIBRARY,固定圖書館,N.A.,N.A.,N.A.,N.A.,N.A.,N.A.,N.A.,N.A.,http://www.hkpl.gov.hk/en/locations/wong-tai-sin/library/san-po-kong.html,http://www.hkpl.gov.hk/tc/locations/wong-tai-sin/library/san-po-kong.html,22.33497,114.19596,,821768,838234
114.13848,22.34016,162,Fin6PTroEz,Libraries,Lai Chi Kok Public Library,"G/F - 1/F. 19 Lai Wan Road, Lai Chi Kok, Kowloon",圖書館,荔枝角公共圖書館,九龍荔枝角荔灣道19號地下至一樓,SHAM SHUI PO,深水埗,STATIC LIBRARY,固定圖書館,N.A.,N.A.,N.A.,N.A.,N.A.,N.A.,N.A.,N.A.,http://www.hkpl.gov.hk/en/locations/sham-shui-po/library/lai-chi-kok.html,http://www.hkpl.gov.hk/tc/locations/sham-shui-po/library/lai-chi-kok.html,22.34016,114.13848,3231322343T20050430,822343,832313
114.15749,22.33849,163,plNDmzXtbl,Libraries,Po On Road Public Library,"1/F., Po On Road Municipal Services Building, 325-329 Po On Road, Sham Shui Po, Kowloon",圖書館,保安道公共圖書館,九龍深水埗保安道325-329號保安道市政大廈二樓,SHAM SHUI PO,深水埗,STATIC LIBRARY,固定圖書館,N.A.,N.A.,N.A.,N.A.,N.A.,N.A.,N.A.,N.A.,http://www.hkpl.gov.hk/en/locations/sham-shui-po/library/po-on-road.html,http://www.hkpl.gov.hk/tc/locations/sham-shui-po/library/po-on-road.html,22.33849,114.15749,,822158,834271
114.13862,22.3706,164,9v1Nuwfm5D,Libraries,North Kwai Chung Public Library,"2/F & 3/F, North Kwai Chung Market & Library, Shek Yam Road, Kwai Chung, N.T.",圖書館,北葵涌公共圖書館,新界葵涌石蔭路北葵涌街市及圖書館三樓及四樓,KWAI TSING,葵青,STATIC LIBRARY,固定圖書館,N.A.,N.A.,N.A.,N.A.,N.A.,N.A.,N.A.,N.A.,http://www.hkpl.gov.hk/en/locations/kwai-tsing/library/north-kwai-chung.html,http://www.hkpl.gov.hk/tc/locations/kwai-tsing/library/north-kwai-chung.html,22.3706,114.13862,3232825714T20050430,825714,832328
114.163320000000112,22.33201,165,S64nPsrQot,Libraries,Un Chau Street Public Library,"1/F., Un Chau Street Municipal Services Building, 59-63 Un Chau Street, Kowloon",圖書館,元州街公共圖書館,九龍元州街59-63號元州街市政大廈一樓,SHAM SHUI PO,深水埗,STATIC LIBRARY,固定圖書館,N.A.,N.A.,N.A.,N.A.,N.A.,N.A.,N.A.,N.A.,http://www.hkpl.gov.hk/en/locations/sham-shui-po/library/un-chau-street.html,http://www.hkpl.gov.hk/tc/locations/sham-shui-po/library/un-chau-street.html,22.33201,114.16332,3487221440T20050430,821440,834872
114.1707,22.32078,166,GDJjRg9XFQ,Libraries,Fa Yuen Street Public Library,"4-5/F., Fa Yuen Street Municipal Services Building, 123A Fa Yuen Street, Mong Kok, Kowloon",圖書館,花園街公共圖書館,九龍旺角花園街123號A花園街市政大廈四至五樓,YAU TSIM MONG,油尖旺,STATIC LIBRARY,固定圖書館,N.A.,N.A.,N.A.,N.A.,N.A.,N.A.,N.A.,N.A.,http://www.hkpl.gov.hk/en/locations/yau-tsim-mong/library/fa-yuen-street.html,http://www.hkpl.gov.hk/tc/locations/yau-tsim-mong/library/fa-yuen-street.html,22.32078,114.1707,3563220197T20050430,820197,835632
114.16279,22.32188,167,hpJOj49VOA,Libraries,Tai Kok Tsui Public Library,"3/F., Tai Kok Tsui Municipal Services Building, 63 Fuk Tsun Street, Tai Kok Tsui, Kowloon",圖書館,大角咀公共圖書館,九龍大角咀福全街63號大角咀市政大厦三樓,YAU TSIM MONG,油尖旺,STATIC LIBRARY,固定圖書館,N.A.,N.A.,N.A.,N.A.,N.A.,N.A.,N.A.,N.A.,http://www.hkpl.gov.hk/en/locations/yau-tsim-mong/library/tai-kok-tsui.html,http://www.hkpl.gov.hk/tc/locations/yau-tsim-mong/library/tai-kok-tsui.html,22.32188,114.16279,3481720319T20050705,820319,834817
114.1784,22.30202,168,JSm3844OZX,Libraries,Tsim Sha Tsui Public Library,"1/F., Concordia Plaza, 1 Science Museum Road, Tsim Sha Tsui East, Kowloon",圖書館,尖沙咀公共圖書館,九龍尖沙咀東部科學館道1號康宏廣場一樓,YAU TSIM MONG,油尖旺,STATIC LIBRARY,固定圖書館,N.A.,N.A.,N.A.,N.A.,N.A.,N.A.,N.A.,N.A.,http://www.hkpl.gov.hk/en/locations/yau-tsim-mong/library/tsim-sha-tsui.html,http://www.hkpl.gov.hk/tc/locations/yau-tsim-mong/library/tsim-sha-tsui.html,22.30202,114.1784,3642518120T20050430,818120,836425
114.13154,22.36313,169,FkmiraG9bM,Libraries,South Kwai Chung Public Library,"4/F, Kwai Hing Government Offices, 166-174 Hing Fong Road, Kwai Chung, N.T.",圖書館,南葵涌公共圖書館,新界葵涌興芳路166-174號葵興政府合署四樓,KWAI TSING,葵青,STATIC LIBRARY,固定圖書館,N.A.,N.A.,N.A.,N.A.,N.A.,N.A.,N.A.,N.A.,http://www.hkpl.gov.hk/en/locations/kwai-tsing/library/south-kwai-chung.html,http://www.hkpl.gov.hk/tc/locations/kwai-tsing/library/south-kwai-chung.html,22.36313,114.13154,3159924887T20070426,824887,831599
114.10646,22.3541,170,2PG7fBNozW,Libraries,Tsing Yi Public Library,"1/F, Tsing Yi Municipal Services Building, 38 Tsing Luk Street, Tsing Yi, N.T.",圖書館,青衣公共圖書館,新界青衣青綠街38號青衣市政大廈一樓,KWAI TSING,葵青,STATIC LIBRARY,固定圖書館,N.A.,N.A.,N.A.,N.A.,N.A.,N.A.,N.A.,N.A.,http://www.hkpl.gov.hk/en/locations/kwai-tsing/library/tsing-yi.html,http://www.hkpl.gov.hk/tc/locations/kwai-tsing/library/tsing-yi.html,22.3541,114.10646,2901523888T20050430,823888,829015
113.97018,22.40231,171,41seeFK2r2,Libraries,Tai Hing Public Library,"Unit No. 80, 1/F, Commercial Complex, Tai Hing Estate, Tuen Mun, N.T.",圖書館,大興公共圖書館,新界屯門大興邨商場二樓80號,TUEN MUN,屯門,STATIC LIBRARY,固定圖書館,N.A.,N.A.,N.A.,N.A.,N.A.,N.A.,N.A.,N.A.,http://www.hkpl.gov.hk/en/locations/tuen-mun/library/tai-hing.html,http://www.hkpl.gov.hk/tc/locations/tuen-mun/library/tai-hing.html,22.40231,113.97018,1498529240T20050430,829240,814985
113.97678,22.39102,172,XD2bZStuDA,Libraries,Tuen Mun Public Library,"1 Tuen Hi Road, Tuen Mun, N.T.",圖書館,屯門公共圖書館,新界屯門屯喜路1號,TUEN MUN,屯門,STATIC LIBRARY,固定圖書館,N.A.,N.A.,N.A.,N.A.,N.A.,N.A.,N.A.,N.A.,http://www.hkpl.gov.hk/en/locations/tuen-mun/library/tuen-mun.html ,http://www.hkpl.gov.hk/tc/locations/tuen-mun/library/tuen-mun.html ,22.39102,113.97678,1566327989T20050430,827989,815663
114.12427,22.37477,173,893FNqHg68,Libraries,Shek Wai Kok Public Library,"Units No. 215 -219, Shek Fong House, Shek Wai Kok Estate, Tsuen Wan, N.T.",圖書館,石圍角公共圖書館,新界荃灣石圍角邨石芳樓215-219室,TSUEN WAN,荃灣,STATIC LIBRARY,固定圖書館,N.A.,N.A.,N.A.,N.A.,N.A.,N.A.,N.A.,N.A.,http://www.hkpl.gov.hk/en/locations/tsuen-wan/library/shek-wai-kok.html,http://www.hkpl.gov.hk/tc/locations/tsuen-wan/library/shek-wai-kok.html,22.37477,114.12427,3085026176T20050430,826176,830850
114.115590000000111,22.37428,174,WNpq9Ndyp0,Libraries,Tsuen Wan Public Library,"38 Sai Lau Kok Road, Tsuen Wan, N.T.",圖書館,荃灣公共圖書館,新界荃灣西樓角路38號,TSUEN WAN,荃灣,STATIC LIBRARY,固定圖書館,N.A.,N.A.,N.A.,N.A.,N.A.,N.A.,N.A.,N.A.,http://www.hkpl.gov.hk/en/locations/tsuen-wan/library/tsuen-wan.html ,http://www.hkpl.gov.hk/tc/locations/tsuen-wan/library/tsuen-wan.html ,22.37428,114.11559,2995626122T20050430,826122,829956
114.14494,22.50039,175,9tYclkGhGE,Libraries,Fanling Public Library,"2/F, 9 Wo Mun Street, Fanling, N.T.",圖書館,粉嶺公共圖書館,新界粉嶺和滿街9號二樓,NORTH,北區,STATIC LIBRARY,固定圖書館,N.A.,N.A.,N.A.,N.A.,N.A.,N.A.,N.A.,N.A.,http://www.hkpl.gov.hk/en/locations/north/library/fanling.html,http://www.hkpl.gov.hk/tc/locations/north/library/fanling.html,22.50039,114.14494,,840087,832982
114.13075,22.50216,176,PQj4ePnHQ5,Libraries,Sheung Shui Public Library,"3/F, Shek Wu Hui Municipal Services Building, 13 Chi Cheong Road, Sheung Shui, N.T.",圖書館,上水公共圖書館,新界上水智昌路13號石湖墟市政大廈三樓,NORTH,北區,STATIC LIBRARY,固定圖書館,N.A.,N.A.,N.A.,N.A.,N.A.,N.A.,N.A.,N.A.,http://www.hkpl.gov.hk/en/locations/north/library/sheung-shui.html,http://www.hkpl.gov.hk/tc/locations/north/library/sheung-shui.html,22.50216,114.13075,3152240283T20050430,840283,831522
114.19059,22.38478,177,esmgPJNjAB,Libraries,Lek Yuen Public Library,"Units 101 - 110, G/F, Kwai Wo House, Lek Yuen Estate, Sha Tin, N.T.",圖書館,瀝源公共圖書館,新界沙田瀝源邨貴和樓地下101-110號,SHA TIN,沙田,STATIC LIBRARY,固定圖書館,N.A.,N.A.,N.A.,N.A.,N.A.,N.A.,N.A.,N.A.,http://www.hkpl.gov.hk/en/locations/sha-tin/library/lek-yuen.html,http://www.hkpl.gov.hk/tc/locations/sha-tin/library/lek-yuen.html,22.38478,114.19059,3768027284T20140425,827284,837680
114.23033,22.42602,178,75KtT7Yusk,Libraries,Ma On Shan Public Library,"14 On Chun Street, Ma On Shan, Shatin, N.T.",圖書館,馬鞍山公共圖書館,新界沙田馬鞍山鞍駿街14號,SHA TIN,沙田,STATIC LIBRARY,固定圖書館,N.A.,N.A.,N.A.,N.A.,N.A.,N.A.,N.A.,N.A.,http://www.hkpl.gov.hk/en/locations/sha-tin/library/ma-on-shan.html,http://www.hkpl.gov.hk/tc/locations/sha-tin/library/ma-on-shan.html,22.42602,114.23033,4177131852T20050430,831852,841771
114.18925,22.38066,179,IxjUlpU81E,Libraries,Sha Tin Public Library,"1 Yuen Wo Road, Shatin, N.T.",圖書館,沙田公共圖書館,新界沙田源禾路1號,SHA TIN,沙田,STATIC LIBRARY,固定圖書館,N.A.,N.A.,N.A.,N.A.,N.A.,N.A.,N.A.,N.A.,http://www.hkpl.gov.hk/en/locations/sha-tin/library/sha-tin.html,http://www.hkpl.gov.hk/tc/locations/sha-tin/library/sha-tin.html,22.38066,114.18925,3754226828T20050430,826828,837542
114.02835,22.20682,180,yeIbAMKtK1,Libraries,Cheung Chau Public Library,"2/F, Cheung Chau Municipal Services Building, 2 Tai Hing Tai Road, Cheung Chau, N.T.",圖書館,長洲公共圖書館,新界長洲大興堤路2號長洲市政大樓二樓,ISLANDS,離島,STATIC LIBRARY,固定圖書館,N.A.,N.A.,N.A.,N.A.,N.A.,N.A.,N.A.,N.A.,http://www.hkpl.gov.hk/en/locations/islands/library/cheung-chau.html,http://www.hkpl.gov.hk/tc/locations/islands/library/cheung-chau.html,22.20682,114.02835,2095307585T20050430,807585,820953
113.99648,22.26699,181,B5AFjttpvd,Libraries,Mui Wo Public Library,"G/F, Mui Wo Municipal Services Building, 9 Ngan Shek Street, Mui Wo, Lantau Island, N.T.",圖書館,梅窩公共圖書館,新界大嶼山梅窩銀石街9號梅窩市政大廈地下,ISLANDS,離島,STATIC LIBRARY,固定圖書館,N.A.,N.A.,N.A.,N.A.,N.A.,N.A.,N.A.,N.A.,http://www.hkpl.gov.hk/en/locations/islands/library/mui-wo.html,http://www.hkpl.gov.hk/tc/locations/islands/library/mui-wo.html,22.26699,113.99648,1767514251T20050430,814251,817675
114.038050000000126,22.28489,182,iaRbhDsU9k,Libraries,Peng Chau Public Library,"G/F, Peng Chau Municipal Services Building, 6 Po Peng Street, Peng Chau, N.T.",圖書館,坪洲公共圖書館,新界坪洲寶坪街6號坪洲市政大廈地下,ISLANDS,離島,STATIC LIBRARY,固定圖書館,N.A.,N.A.,N.A.,N.A.,N.A.,N.A.,N.A.,N.A.,http://www.hkpl.gov.hk/en/locations/islands/library/peng-chau.html,http://www.hkpl.gov.hk/tc/locations/islands/library/peng-chau.html,22.28489,114.03805,2196216229T20050430,816229,821962
114.13172,22.20591,183,BtBfuIf8Bl,Libraries,South Lamma Public Library,"Second Street, Sok Kwu Wan, Lamma Island, N.T.",圖書館,南丫島南段公共圖書館,新界南丫島索罟灣第二街,ISLANDS,離島,STATIC LIBRARY,固定圖書館,N.A.,N.A.,N.A.,N.A.,N.A.,N.A.,N.A.,N.A.,http://www.hkpl.gov.hk/en/locations/islands/library/south-lamma.html,http://www.hkpl.gov.hk/tc/locations/islands/library/south-lamma.html,22.20591,114.13172,3161207478T20050430,807478,831612
113.86565,22.25344,184,r72hxO5Vl8,Libraries,Tai O Public Library,"Shop No. 12, Commercial Centre, Lung Tin Estate, Tai O, Lantau Island, N.T.",圖書館,大澳公共圖書館,新界大嶼山大澳龍田邨商業中心12號舖,ISLANDS,離島,STATIC LIBRARY,固定圖書館,N.A.,N.A.,N.A.,N.A.,N.A.,N.A.,N.A.,N.A.,http://www.hkpl.gov.hk/en/locations/islands/library/tai-o.html,http://www.hkpl.gov.hk/tc/locations/islands/library/tai-o.html,22.25344,113.86565,0418812773T20050430,812773,804188
114.259410000000102,22.31817,185,H3iq8Io6m9,Libraries,Tseung Kwan O Public Library,"9 Wan Lung Road, Tseung Kwan O, N.T.",圖書館,將軍澳公共圖書館,新界將軍澳運隆路9號,SAI KUNG,西貢,STATIC LIBRARY,固定圖書館,N.A.,N.A.,N.A.,N.A.,N.A.,N.A.,N.A.,N.A.,http://www.hkpl.gov.hk/en/locations/sai-kung/library/tseung-kwan-o.html,http://www.hkpl.gov.hk/tc/locations/sai-kung/library/tseung-kwan-o.html,22.31817,114.25941,4477219910T20050430,819910,844772
